{"type":"FeatureCollection","features":[{"type":"Feature","properties":{"Name":"Line 11"},"geometry":{"type":"MultiLineString","coordinates":[[[-80.09108,43.32847],[-80.09047,43.32628],[-80.08925,43.3219],[-80.08742,43.31534],[-80.08498,43.30658],[-80.08192,43.29563],[-80.07826,43.2825],[-80.07399,43.26718],[-80.06911,43.24966],[-80.06433,43.23403],[-80.05967,43.22026],[-80.0551,43.20837],[-80.05065,43.19835],[-80.0463,43.19021],[-80.04206,43.18394],[-80.03793,43.17955],[-80.03391,43.17703],[-80.02827,43.17442],[-80.02101,43.17174],[-80.01215,43.16896],[-80.00167,43.16611],[-79.98957,43.16317],[-79.97587,43.16014],[-79.96054,43.15703],[-79.94361,43.15384],[-79.92934,43.14979],[-79.91773,43.14488],[-79.90878,43.13911],[-79.90249,43.13249],[-79.89887,43.12501],[-79.89791,43.11667],[-79.89961,43.10748],[-79.90397,43.09743],[-79.90842,43.08851],[-79.91294,43.08072],[-79.91755,43.07406],[-79.92223,43.06854],[-79.927,43.06415],[-79.93185,43.06088],[-79.93678,43.05875],[-79.94178,43.05775],[-79.94738,43.05508],[-79.95357,43.05073],[-79.96034,43.04471],[-79.96771,43.03701],[-79.97567,43.02764],[-79.98422,43.0166],[-79.99335,43.00388],[-80.00308,42.98948],[-80.01226,42.97666],[-80.02088,42.96542],[-80.02896,42.95576],[-80.03649,42.94767],[-80.04347,42.94116],[-80.0499,42.93623],[-80.05579,42.93287],[-80.06112,42.93109],[-80.06579,42.92894],[-80.06982,42.9264],[-80.07318,42.92348],[-80.07589,42.92019],[-80.07795,42.91651],[-80.07935,42.91246],[-80.08009,42.90803],[-80.08018,42.90322],[-80.07997,42.89831],[-80.07946,42.89331],[-80.07866,42.88821],[-80.07755,42.88301],[-80.07615,42.87772],[-80.07446,42.87233],[-80.07246,42.86684],[-80.07017,42.86126],[-80.06796,42.8563],[-80.06584,42.85196],[-80.06382,42.84824],[-80.06188,42.84514],[-80.06002,42.84266],[-80.05826,42.84081],[-80.05658,42.83958],[-80.055,42.83896],[-80.05361,42.83843],[-80.05242,42.83797],[-80.05142,42.83759],[-80.05063,42.83728],[-80.05003,42.83705],[-80.04964,42.8369],[-80.04944,42.83682]]]}}]}