{"type":"FeatureCollection","features":[{"type":"Feature","properties":{"Name":"Line 14/64"},"geometry":{"type":"MultiLineString","coordinates":[[[-92.06138,46.68754],[-92.06133,46.68704],[-92.06122,46.68606],[-92.06106,46.68458],[-92.06085,46.68261],[-92.06059,46.68014],[-92.06027,46.67718],[-92.05989,46.67373],[-92.05947,46.66978],[-92.05768,46.66471],[-92.05452,46.6585],[-92.05,46.65115],[-92.04411,46.64268],[-92.03685,46.63307],[-92.02823,46.62233],[-92.01824,46.61045],[-92.00689,46.59744],[-91.99553,46.58392],[-91.98417,46.56988],[-91.97281,46.55532],[-91.96145,46.54024],[-91.95009,46.52464],[-91.93872,46.50853],[-91.92735,46.4919],[-91.91598,46.47475],[-91.90487,46.45731],[-91.89402,46.43958],[-91.88342,46.42156],[-91.87309,46.40326],[-91.86302,46.38466],[-91.8532,46.36577],[-91.84364,46.3466],[-91.83435,46.32713],[-91.82522,46.30854],[-91.81625,46.29081],[-91.80746,46.27396],[-91.79883,46.25798],[-91.79038,46.24286],[-91.78209,46.22862],[-91.77396,46.21525],[-91.76601,46.20275],[-91.75659,46.18865],[-91.74571,46.17295],[-91.73337,46.15566],[-91.71957,46.13677],[-91.7043,46.11628],[-91.68757,46.09419],[-91.66938,46.07051],[-91.64973,46.04523],[-91.63089,46.02159],[-91.61286,45.99958],[-91.59564,45.97921],[-91.57924,45.96047],[-91.56365,45.94337],[-91.54888,45.9279],[-91.53491,45.91407],[-91.52176,45.90187],[-91.51018,45.89084],[-91.50016,45.88096],[-91.49171,45.87225],[-91.48482,45.86469],[-91.4795,45.8583],[-91.47574,45.85307],[-91.47355,45.849],[-91.47292,45.84609],[-91.47192,45.84313],[-91.47054,45.84013],[-91.46878,45.83708],[-91.46665,45.83399],[-91.46414,45.83085],[-91.46125,45.82766],[-91.45799,45.82442],[-91.45435,45.82114],[-91.45114,45.8176],[-91.44836,45.81379],[-91.446,45.80972],[-91.44408,45.80539],[-91.44258,45.80079],[-91.44152,45.79592],[-91.44088,45.7908],[-91.44067,45.78541],[-91.43988,45.78069],[-91.4385,45.77665],[-91.43653,45.77328],[-91.43398,45.77058],[-91.43085,45.76856],[-91.42713,45.76722],[-91.42282,45.76654],[-91.41793,45.76654],[-91.41082,45.76362],[-91.40148,45.75777],[-91.38993,45.749],[-91.37615,45.73731],[-91.36016,45.72269],[-91.34194,45.70515],[-91.3215,45.68469],[-91.29884,45.6613],[-91.2777,45.63869],[-91.25809,45.61687],[-91.24001,45.59582],[-91.22345,45.57556],[-91.20842,45.55608],[-91.19492,45.53737],[-91.18294,45.51945],[-91.17248,45.50231],[-91.1622,45.4865],[-91.15209,45.47203],[-91.14215,45.45888],[-91.13239,45.44707],[-91.12279,45.43659],[-91.11337,45.42744],[-91.10412,45.41963],[-91.09505,45.41314],[-91.08433,45.40492],[-91.07197,45.39495],[-91.05796,45.38325],[-91.04232,45.36981],[-91.02503,45.35462],[-91.00611,45.3377],[-90.98554,45.31904],[-90.96332,45.29863],[-90.94199,45.27875],[-90.92154,45.25938],[-90.90196,45.24053],[-90.88326,45.2222],[-90.86544,45.20438],[-90.84849,45.18709],[-90.83243,45.17031],[-90.81724,45.15405],[-90.80192,45.13838],[-90.78646,45.12331],[-90.77086,45.10884],[-90.75512,45.09496],[-90.73925,45.08168],[-90.72324,45.06899],[-90.7071,45.0569],[-90.69082,45.0454],[-90.6757,45.03431],[-90.66175,45.02363],[-90.64897,45.01337],[-90.63735,45.00351],[-90.6269,44.99406],[-90.61762,44.98502],[-90.6095,44.97639],[-90.60255,44.96817],[-90.59514,44.96017],[-90.58728,44.9524],[-90.57897,44.94484],[-90.5702,44.93751],[-90.56098,44.9304],[-90.5513,44.92351],[-90.54117,44.91684],[-90.53058,44.91039],[-90.51873,44.90265],[-90.50561,44.8936],[-90.49121,44.88325],[-90.47555,44.87161],[-90.45862,44.85866],[-90.44042,44.84441],[-90.42095,44.82886],[-90.40021,44.81201],[-90.37878,44.79401],[-90.35667,44.77485],[-90.33387,44.75454],[-90.31039,44.73307],[-90.28622,44.71046],[-90.26136,44.68668],[-90.23582,44.66176],[-90.20959,44.63568],[-90.18379,44.6106],[-90.15841,44.58651],[-90.13346,44.56342],[-90.10894,44.54132],[-90.08485,44.52022],[-90.06118,44.50011],[-90.03794,44.481],[-90.01513,44.46288],[-89.99494,44.44671],[-89.97738,44.43249],[-89.96244,44.42022],[-89.95013,44.4099],[-89.94044,44.40152],[-89.93338,44.39509],[-89.92894,44.39061],[-89.92713,44.38808],[-89.92556,44.3847],[-89.92423,44.38047],[-89.92314,44.37539],[-89.9223,44.36946],[-89.9217,44.36269],[-89.92134,44.35506],[-89.92122,44.34659],[-89.92135,44.33727],[-89.92085,44.32885],[-89.91972,44.32134],[-89.91798,44.31473],[-89.91561,44.30903],[-89.91262,44.30423],[-89.909,44.30034],[-89.90476,44.29735],[-89.8999,44.29527],[-89.89495,44.2928],[-89.88992,44.28994],[-89.88481,44.28669],[-89.87962,44.28306],[-89.87434,44.27904],[-89.86898,44.27464],[-89.86354,44.26985],[-89.85801,44.26467],[-89.85264,44.25852],[-89.84743,44.2514],[-89.84237,44.2433],[-89.83746,44.23424],[-89.83271,44.22421],[-89.82812,44.2132],[-89.82368,44.20122],[-89.81939,44.18828],[-89.81487,44.17547],[-89.8101,44.16279],[-89.8051,44.15025],[-89.79986,44.13784],[-89.79439,44.12556],[-89.78867,44.11343],[-89.78272,44.10142],[-89.77653,44.08955],[-89.76796,44.0751],[-89.75702,44.05807],[-89.74369,44.03845],[-89.72799,44.01626],[-89.7099,43.99148],[-89.68944,43.96412],[-89.6666,43.93417],[-89.64138,43.90165],[-89.61877,43.87198],[-89.59878,43.84516],[-89.58139,43.8212],[-89.56662,43.8001],[-89.55446,43.78184],[-89.5449,43.76645],[-89.53796,43.7539],[-89.53363,43.74422],[-89.52788,43.73397],[-89.52069,43.72317],[-89.51208,43.7118],[-89.50204,43.69988],[-89.49057,43.6874],[-89.47768,43.67436],[-89.46336,43.66076],[-89.44761,43.64661],[-89.43284,43.63358],[-89.41905,43.62167],[-89.40624,43.61089],[-89.39441,43.60124],[-89.38356,43.59271],[-89.37368,43.5853],[-89.36479,43.57903],[-89.35687,43.57387],[-89.34975,43.56889],[-89.34342,43.56408],[-89.33787,43.55943],[-89.33312,43.55496],[-89.32915,43.55066],[-89.32597,43.54652],[-89.32359,43.54256],[-89.32199,43.53876],[-89.31915,43.53426],[-89.31506,43.52905],[-89.30972,43.52314],[-89.30313,43.51652],[-89.2953,43.50919],[-89.28621,43.50116],[-89.27588,43.49243],[-89.2643,43.48299],[-89.25296,43.47328],[-89.24186,43.46331],[-89.23099,43.45308],[-89.22036,43.44259],[-89.20997,43.43183],[-89.19982,43.42082],[-89.1899,43.40954],[-89.18022,43.39799],[-89.16967,43.38454],[-89.15824,43.36917],[-89.14593,43.35189],[-89.13275,43.3327],[-89.11869,43.3116],[-89.10376,43.28858],[-89.08795,43.26366],[-89.07126,43.23682],[-89.05651,43.21275],[-89.04369,43.19145],[-89.0328,43.17291],[-89.02385,43.15713],[-89.01684,43.14412],[-89.01175,43.13388],[-89.0086,43.1264],[-89.00739,43.12169],[-89.00562,43.11695],[-89.00329,43.11217],[-89.0004,43.10737],[-88.99695,43.10253],[-88.99295,43.09766],[-88.98839,43.09276],[-88.98327,43.08783],[-88.97759,43.08287],[-88.97246,43.07756],[-88.96787,43.07191],[-88.96382,43.06591],[-88.96031,43.05957],[-88.95735,43.05288],[-88.95494,43.04585],[-88.95306,43.03848],[-88.95173,43.03076],[-88.94955,43.02262],[-88.94651,43.01407],[-88.94263,43.0051],[-88.93789,42.99571],[-88.9323,42.98591],[-88.92586,42.97569],[-88.91857,42.96505],[-88.91042,42.954],[-88.90267,42.9438],[-88.89531,42.93447],[-88.88835,42.92599],[-88.88177,42.91838],[-88.8756,42.91162],[-88.86981,42.90572],[-88.86442,42.90069],[-88.85942,42.89651],[-88.85376,42.8904],[-88.84744,42.88237],[-88.84046,42.8724],[-88.83283,42.8605],[-88.82453,42.84667],[-88.81557,42.83091],[-88.80595,42.81322],[-88.79567,42.7936],[-88.78567,42.77514],[-88.77594,42.75785],[-88.7665,42.74171],[-88.75733,42.72674],[-88.74845,42.71292],[-88.73984,42.70027],[-88.73151,42.68879],[-88.72346,42.67846],[-88.71556,42.6679],[-88.70782,42.6571],[-88.70023,42.64607],[-88.69279,42.63481],[-88.68551,42.62331],[-88.67838,42.61158],[-88.67141,42.59962],[-88.66459,42.58742],[-88.65618,42.57497],[-88.64617,42.56227],[-88.63457,42.54932],[-88.62138,42.53612],[-88.6066,42.52266],[-88.59022,42.50896],[-88.57226,42.495],[-88.55269,42.48079],[-88.53572,42.4675],[-88.52132,42.45513],[-88.50951,42.44368],[-88.50028,42.43315],[-88.49364,42.42353],[-88.48957,42.41484],[-88.48809,42.40706],[-88.48919,42.40021],[-88.4906,42.39401],[-88.4923,42.38845],[-88.4943,42.38356],[-88.49661,42.37931],[-88.49922,42.37572],[-88.50212,42.37278],[-88.50533,42.37049],[-88.50884,42.36886],[-88.51153,42.36691],[-88.5134,42.36463],[-88.51446,42.36204],[-88.51469,42.35912],[-88.51411,42.35588],[-88.51271,42.35232],[-88.51049,42.34844],[-88.50746,42.34424],[-88.50525,42.34025],[-88.50387,42.33648],[-88.50332,42.33291],[-88.5036,42.32956],[-88.5047,42.32642],[-88.50663,42.32349],[-88.5094,42.32077],[-88.51298,42.31826],[-88.51612,42.31578],[-88.5188,42.31332],[-88.52103,42.31089],[-88.52281,42.30848],[-88.52414,42.30609],[-88.52501,42.30372],[-88.52543,42.30138],[-88.5254,42.29906],[-88.52488,42.29692],[-88.52386,42.29496],[-88.52236,42.29317],[-88.52037,42.29157],[-88.51789,42.29014],[-88.51491,42.28889],[-88.51145,42.28782],[-88.5075,42.28693],[-88.504,42.2844],[-88.50097,42.28023],[-88.49839,42.27443],[-88.49627,42.26699],[-88.49461,42.25792],[-88.49341,42.24721],[-88.49267,42.23487],[-88.49239,42.22088],[-88.49184,42.2085],[-88.49102,42.19772],[-88.48993,42.18853],[-88.48858,42.18095],[-88.48696,42.17496],[-88.48507,42.17057],[-88.48291,42.16778],[-88.48048,42.16659],[-88.47836,42.16508],[-88.47653,42.16325],[-88.475,42.1611],[-88.47377,42.15863],[-88.47284,42.15585],[-88.47221,42.15275],[-88.47188,42.14933],[-88.47185,42.14559],[-88.47205,42.14224],[-88.47248,42.13929],[-88.47314,42.13674],[-88.47403,42.13458],[-88.47515,42.13282],[-88.4765,42.13145],[-88.47808,42.13048],[-88.47989,42.1299],[-88.48167,42.12817],[-88.4834,42.12529],[-88.4851,42.12126],[-88.48675,42.11607],[-88.48837,42.10973],[-88.48995,42.10223],[-88.49148,42.09359],[-88.49298,42.08379],[-88.49455,42.07485],[-88.49617,42.06676],[-88.49786,42.05953],[-88.49961,42.05316],[-88.50142,42.04764],[-88.50329,42.04298],[-88.50523,42.03918],[-88.50723,42.03623],[-88.50879,42.03295],[-88.50991,42.02935],[-88.51059,42.02541],[-88.51084,42.02114],[-88.51064,42.01654],[-88.51001,42.01161],[-88.50894,42.00634],[-88.50744,42.00075],[-88.50653,41.99509],[-88.50622,41.98936],[-88.50651,41.98356],[-88.5074,41.9777],[-88.50889,41.97177],[-88.51098,41.96577],[-88.51367,41.9597],[-88.51695,41.95356],[-88.5199,41.94531],[-88.5225,41.93495],[-88.52476,41.92246],[-88.52668,41.90787],[-88.52825,41.89115],[-88.52948,41.87232],[-88.53037,41.85138],[-88.53092,41.82832],[-88.53192,41.80768],[-88.5334,41.78946],[-88.53533,41.77365],[-88.53773,41.76027],[-88.54059,41.7493],[-88.54391,41.74076],[-88.5477,41.73463],[-88.55195,41.73092],[-88.55571,41.72621],[-88.55898,41.7205],[-88.56176,41.71378],[-88.56405,41.70607],[-88.56585,41.69736],[-88.56716,41.68765],[-88.56798,41.67693],[-88.56831,41.66522],[-88.56752,41.65458],[-88.5656,41.64502],[-88.56256,41.63654],[-88.5584,41.62913],[-88.55311,41.6228],[-88.54669,41.61755],[-88.53916,41.61337],[-88.5305,41.61027],[-88.52292,41.60739],[-88.51642,41.60472],[-88.511,41.60228],[-88.50666,41.60004],[-88.50341,41.59803],[-88.50123,41.59624],[-88.50013,41.59466],[-88.50012,41.5933],[-88.49528,41.59035],[-88.48562,41.58583],[-88.47114,41.57972],[-88.45184,41.57204],[-88.42773,41.56277],[-88.39879,41.55192],[-88.36502,41.53949],[-88.32644,41.52547],[-88.29176,41.51352],[-88.26098,41.50363],[-88.2341,41.49579],[-88.21112,41.49002],[-88.19204,41.4863],[-88.17686,41.48464],[-88.16557,41.48505],[-88.15819,41.48751],[-88.14358,41.48948],[-88.12173,41.49097],[-88.09264,41.49196],[-88.05632,41.49247],[-88.01277,41.49248],[-87.96198,41.49201],[-87.90395,41.49104],[-87.83869,41.48959],[-87.78152,41.48854],[-87.73245,41.48789],[-87.69146,41.48764],[-87.65857,41.48779],[-87.63377,41.48834],[-87.61706,41.48929],[-87.60845,41.49065],[-87.60792,41.49241],[-87.60596,41.49394],[-87.60255,41.49523],[-87.59771,41.4963],[-87.59142,41.49714],[-87.5837,41.49776],[-87.57453,41.49814],[-87.56393,41.49829],[-87.55188,41.49822],[-87.54041,41.49833],[-87.52952,41.49863],[-87.51919,41.49911],[-87.50944,41.49978],[-87.50026,41.50064],[-87.49165,41.50169],[-87.48362,41.50292],[-87.47616,41.50433],[-87.46963,41.50557],[-87.46403,41.50664],[-87.45937,41.50752],[-87.45564,41.50823],[-87.45284,41.50876],[-87.45097,41.50912],[-87.45004,41.50929]],[[-88.88191,42.92783],[-88.87594,42.9113]]]}}]}