{"type":"FeatureCollection","features":[{"type":"Feature","properties":{"Name":"Line 3/93"},"geometry":{"type":"MultiLineString","coordinates":[[[-113.3562,53.54164],[-113.35186,53.53739],[-113.34318,53.52888],[-113.33016,53.51613],[-113.3128,53.49912],[-113.2911,53.47785],[-113.26506,53.45234],[-113.23468,53.42257],[-113.19996,53.38856],[-113.16598,53.3574],[-113.13274,53.32912],[-113.10024,53.3037],[-113.06848,53.28115],[-113.03745,53.26146],[-113.00717,53.24464],[-112.97763,53.23069],[-112.94883,53.2196],[-112.92013,53.20901],[-112.89154,53.19891],[-112.86305,53.1893],[-112.83467,53.18018],[-112.80639,53.17156],[-112.77822,53.16343],[-112.75015,53.15579],[-112.72219,53.14865],[-112.69308,53.14081],[-112.66282,53.13228],[-112.63141,53.12305],[-112.59884,53.11313],[-112.56513,53.10251],[-112.53026,53.0912],[-112.49425,53.07919],[-112.45708,53.06648],[-112.40514,53.04824],[-112.33842,53.02446],[-112.25691,52.99514],[-112.16064,52.96028],[-112.04958,52.91988],[-111.92374,52.87395],[-111.78313,52.82247],[-111.62774,52.76546],[-111.48584,52.71375],[-111.35743,52.66733],[-111.24251,52.62621],[-111.14108,52.59039],[-111.05314,52.55987],[-110.9787,52.53464],[-110.91774,52.51471],[-110.87028,52.50008],[-110.82683,52.48652],[-110.78741,52.47401],[-110.752,52.46257],[-110.72061,52.45219],[-110.69324,52.44288],[-110.66989,52.43463],[-110.65055,52.42744],[-110.63524,52.42131],[-110.60413,52.41008],[-110.55724,52.39374],[-110.49455,52.37229],[-110.41608,52.34573],[-110.32181,52.31407],[-110.21176,52.2773],[-110.08591,52.23542],[-109.94428,52.18843],[-109.81083,52.14376],[-109.68558,52.10141],[-109.56851,52.06138],[-109.45962,52.02367],[-109.35893,51.98828],[-109.26643,51.9552],[-109.18211,51.92445],[-109.10598,51.89601],[-109.02299,51.86726],[-108.93314,51.8382],[-108.83644,51.80882],[-108.73287,51.77912],[-108.62245,51.7491],[-108.50517,51.71878],[-108.38103,51.68813],[-108.25003,51.65717],[-108.12721,51.62797],[-108.01257,51.60052],[-107.90611,51.57484],[-107.80784,51.55092],[-107.71774,51.52875],[-107.63583,51.50835],[-107.5621,51.4897],[-107.49655,51.47282],[-107.43448,51.45704],[-107.37589,51.44238],[-107.32078,51.42884],[-107.26916,51.41641],[-107.22102,51.4051],[-107.17635,51.39489],[-107.13517,51.38581],[-107.09748,51.37784],[-107.06096,51.36955],[-107.02562,51.36094],[-106.99145,51.35202],[-106.95847,51.34278],[-106.92667,51.33323],[-106.89605,51.32336],[-106.8666,51.31318],[-106.83834,51.30268],[-106.79893,51.28732],[-106.74837,51.26711],[-106.68666,51.24205],[-106.61381,51.21213],[-106.52981,51.17736],[-106.43466,51.13774],[-106.32837,51.09327],[-106.21093,51.04394],[-106.10241,50.99789],[-106.00282,50.95513],[-105.91215,50.91565],[-105.83041,50.87946],[-105.75759,50.84655],[-105.6937,50.81693],[-105.63873,50.79059],[-105.59269,50.76753],[-105.54854,50.74598],[-105.50628,50.72594],[-105.46592,50.7074],[-105.42745,50.69036],[-105.39088,50.67483],[-105.3562,50.6608],[-105.32342,50.64828],[-105.29253,50.63727],[-105.26165,50.62599],[-105.23078,50.61445],[-105.19992,50.60265],[-105.16907,50.5906],[-105.13823,50.57828],[-105.10739,50.5657],[-105.07657,50.55286],[-105.04576,50.53977],[-105.01343,50.5283],[-104.97958,50.51847],[-104.94421,50.51027],[-104.90732,50.50371],[-104.86891,50.49878],[-104.82899,50.49548],[-104.78754,50.49381],[-104.74458,50.49378],[-104.70683,50.49359],[-104.67429,50.49323],[-104.64698,50.49271],[-104.62487,50.49204],[-104.60799,50.4912],[-104.59632,50.49019],[-104.58986,50.48903],[-104.58863,50.48771],[-104.57982,50.48487],[-104.56345,50.48052],[-104.53952,50.47466],[-104.50802,50.46729],[-104.46896,50.4584],[-104.42233,50.448],[-104.36814,50.43609],[-104.30638,50.42267],[-104.24578,50.40896],[-104.18634,50.39498],[-104.12807,50.3807],[-104.07095,50.36615],[-104.015,50.35132],[-103.96021,50.3362],[-103.90658,50.3208],[-103.85411,50.30512],[-103.80665,50.29129],[-103.7642,50.27931],[-103.72675,50.26918],[-103.69431,50.26089],[-103.66687,50.25446],[-103.64444,50.24988],[-103.62702,50.24714],[-103.6146,50.24626],[-103.6015,50.24496],[-103.58772,50.24325],[-103.57325,50.24113],[-103.5581,50.23859],[-103.54226,50.23565],[-103.52574,50.23229],[-103.50854,50.22852],[-103.49065,50.22434],[-103.47095,50.22032],[-103.44942,50.21646],[-103.42608,50.21275],[-103.40092,50.20921],[-103.37394,50.20583],[-103.34515,50.2026],[-103.31453,50.19954],[-103.2821,50.19664],[-103.25229,50.19379],[-103.2251,50.19099],[-103.20054,50.18824],[-103.1786,50.18555],[-103.15928,50.1829],[-103.14259,50.18032],[-103.12852,50.17778],[-103.11707,50.17529],[-103.10409,50.17281],[-103.08957,50.17034],[-103.07352,50.16786],[-103.05593,50.16539],[-103.0368,50.16292],[-103.01614,50.16045],[-102.99394,50.15799],[-102.9702,50.15553],[-102.93923,50.15163],[-102.90101,50.14631],[-102.85555,50.13955],[-102.80285,50.13136],[-102.74291,50.12173],[-102.67573,50.11068],[-102.60131,50.09819],[-102.51964,50.08427],[-102.44307,50.07076],[-102.3716,50.05766],[-102.30523,50.04498],[-102.24396,50.0327],[-102.18778,50.02083],[-102.1367,50.00938],[-102.09072,49.99834],[-102.04984,49.9877],[-102.01121,49.97739],[-101.97483,49.96741],[-101.94071,49.95774],[-101.90885,49.94839],[-101.87924,49.93937],[-101.85188,49.93067],[-101.82678,49.92229],[-101.80393,49.91423],[-101.77763,49.9057],[-101.74788,49.89668],[-101.71468,49.88719],[-101.67803,49.87722],[-101.63793,49.86677],[-101.59438,49.85584],[-101.54737,49.84443],[-101.49692,49.83255],[-101.45152,49.82156],[-101.41118,49.81149],[-101.3759,49.80232],[-101.34568,49.79405],[-101.32051,49.78669],[-101.3004,49.78023],[-101.28535,49.77468],[-101.27536,49.77003],[-101.26159,49.76565],[-101.24404,49.76155],[-101.22271,49.75771],[-101.1976,49.75415],[-101.16871,49.75086],[-101.13604,49.74784],[-101.0996,49.74509],[-101.05937,49.74262],[-101.02382,49.74029],[-100.99293,49.73813],[-100.96671,49.73612],[-100.94516,49.73426],[-100.92827,49.73256],[-100.91606,49.73101],[-100.90851,49.72962],[-100.90563,49.72838],[-100.8995,49.7272],[-100.89013,49.72606],[-100.8775,49.72497],[-100.86163,49.72394],[-100.84251,49.72295],[-100.82014,49.72202],[-100.79452,49.72114],[-100.76565,49.7203],[-100.73931,49.71929],[-100.71549,49.7181],[-100.69419,49.71673],[-100.67541,49.71518],[-100.65916,49.71346],[-100.64543,49.71155],[-100.63422,49.70947],[-100.62554,49.70721],[-100.61587,49.70506],[-100.60521,49.70304],[-100.59358,49.70113],[-100.58095,49.69934],[-100.56735,49.69767],[-100.55276,49.69611],[-100.53719,49.69468],[-100.52063,49.69336],[-100.49877,49.69113],[-100.47163,49.68799],[-100.43918,49.68394],[-100.40144,49.67898],[-100.3584,49.67312],[-100.31007,49.66634],[-100.25644,49.65865],[-100.19751,49.65005],[-100.13464,49.64124],[-100.06783,49.63222],[-99.99708,49.62299],[-99.92239,49.61355],[-99.84375,49.6039],[-99.76118,49.59403],[-99.67466,49.58396],[-99.5842,49.57368],[-99.50116,49.56363],[-99.42554,49.55381],[-99.35734,49.54422],[-99.29656,49.53486],[-99.2432,49.52574],[-99.19726,49.51685],[-99.15874,49.5082],[-99.12764,49.49977],[-99.09054,49.48912],[-99.04744,49.47625],[-98.99833,49.46115],[-98.94323,49.44382],[-98.88212,49.42427],[-98.81501,49.40249],[-98.74189,49.37849],[-98.66278,49.35227],[-98.58406,49.32653],[-98.50573,49.30127],[-98.42779,49.2765],[-98.35025,49.25221],[-98.2731,49.22841],[-98.19635,49.20509],[-98.11998,49.18225],[-98.04402,49.1599],[-97.97729,49.13999],[-97.91982,49.12253],[-97.8716,49.10751],[-97.83262,49.09493],[-97.8029,49.08479],[-97.78242,49.0771],[-97.77119,49.07185],[-97.76921,49.06905],[-97.76635,49.06649],[-97.76262,49.06419],[-97.75802,49.06214],[-97.75253,49.06034],[-97.74618,49.05879],[-97.73894,49.05749],[-97.73084,49.05645],[-97.72185,49.05565],[-97.71193,49.05447],[-97.70106,49.05289],[-97.68924,49.05092],[-97.67649,49.04855],[-97.66279,49.0458],[-97.64815,49.04265],[-97.63257,49.03911],[-97.61604,49.03518],[-97.59113,49.02425],[-97.55784,49.00631],[-97.51616,48.98137],[-97.4661,48.94942],[-97.40765,48.91048],[-97.34082,48.86452],[-97.26561,48.81157],[-97.18201,48.75161],[-97.1064,48.69714],[-97.03879,48.64816],[-96.97918,48.60467],[-96.92756,48.56667],[-96.88394,48.53415],[-96.84831,48.50713],[-96.82067,48.48559],[-96.80103,48.46955],[-96.78143,48.45393],[-96.76187,48.43874],[-96.74236,48.42397],[-96.72288,48.40963],[-96.70345,48.39572],[-96.68406,48.38223],[-96.66471,48.36917],[-96.6454,48.35654],[-96.62825,48.34491],[-96.61326,48.33428],[-96.60043,48.32465],[-96.58976,48.31602],[-96.58125,48.30838],[-96.57491,48.30175],[-96.57072,48.29612],[-96.56869,48.29149],[-96.5663,48.28743],[-96.56355,48.28396],[-96.56043,48.28106],[-96.55694,48.27874],[-96.55309,48.277],[-96.54888,48.27584],[-96.5443,48.27526],[-96.53936,48.27525],[-96.52766,48.2697],[-96.50919,48.25859],[-96.48397,48.24194],[-96.45198,48.21973],[-96.41323,48.19197],[-96.36772,48.15867],[-96.31545,48.11981],[-96.25642,48.07541],[-96.20382,48.03602],[-96.15766,48.00165],[-96.11794,47.9723],[-96.08465,47.94797],[-96.0578,47.92866],[-96.03739,47.91437],[-96.02341,47.9051],[-96.01588,47.90085],[-96.00525,47.89581],[-95.99153,47.88999],[-95.97473,47.88339],[-95.95484,47.87601],[-95.93187,47.86784],[-95.9058,47.85889],[-95.87665,47.84916],[-95.84441,47.83864],[-95.81583,47.82947],[-95.79092,47.82165],[-95.76966,47.81517],[-95.75206,47.81003],[-95.73813,47.80624],[-95.72785,47.80379],[-95.72124,47.80269],[-95.71829,47.80294],[-95.71546,47.80286],[-95.71275,47.80246],[-95.71017,47.80174],[-95.70771,47.8007],[-95.70538,47.79933],[-95.70316,47.79764],[-95.70108,47.79563],[-95.69911,47.7933],[-95.69341,47.78978],[-95.68398,47.78507],[-95.67082,47.77918],[-95.65392,47.77209],[-95.6333,47.76383],[-95.60894,47.75437],[-95.58085,47.74372],[-95.54903,47.73189],[-95.5208,47.72158],[-95.49617,47.71278],[-95.47513,47.70549],[-95.45769,47.69973],[-95.44385,47.69547],[-95.43359,47.69274],[-95.42694,47.69152],[-95.42387,47.69181],[-95.42142,47.69191],[-95.41958,47.69182],[-95.41835,47.69153],[-95.41773,47.69106],[-95.41772,47.69038],[-95.41832,47.68952],[-95.41954,47.68846],[-95.42136,47.68721],[-95.42269,47.68605],[-95.42354,47.68499],[-95.42391,47.68403],[-95.42378,47.68316],[-95.42317,47.68238],[-95.42208,47.6817],[-95.4205,47.68112],[-95.41843,47.68063],[-95.41629,47.67822],[-95.41409,47.67389],[-95.41181,47.66763],[-95.40947,47.65945],[-95.40706,47.64935],[-95.40458,47.63732],[-95.40204,47.62337],[-95.39942,47.60749],[-95.39599,47.59244],[-95.39174,47.57821],[-95.38667,47.5648],[-95.38078,47.55221],[-95.37408,47.54044],[-95.36656,47.5295],[-95.35822,47.51937],[-95.34907,47.51007],[-95.33973,47.5019],[-95.33022,47.49486],[-95.32054,47.48895],[-95.31067,47.48417],[-95.30063,47.48053],[-95.29042,47.47802],[-95.28002,47.47664],[-95.26945,47.4764],[-95.26006,47.47434],[-95.25185,47.47046],[-95.24481,47.46477],[-95.23895,47.45727],[-95.23427,47.44795],[-95.23077,47.43681],[-95.22844,47.42386],[-95.22729,47.4091],[-95.22562,47.39501],[-95.22342,47.38159],[-95.22069,47.36885],[-95.21745,47.35677],[-95.21367,47.34537],[-95.20937,47.33464],[-95.20455,47.32458],[-95.1992,47.3152],[-95.19383,47.30629],[-95.18846,47.29785],[-95.18306,47.28988],[-95.17765,47.28239],[-95.17223,47.27537],[-95.16679,47.26882],[-95.16134,47.26275],[-95.15588,47.25715],[-95.15127,47.24554],[-95.14752,47.22793],[-95.14464,47.20432],[-95.14261,47.17471],[-95.14145,47.13909],[-95.14114,47.09747],[-95.14169,47.04985],[-95.14311,46.99622],[-95.14196,46.94948],[-95.13826,46.9096],[-95.13199,46.87661],[-95.12317,46.85049],[-95.11179,46.83124],[-95.09785,46.81888],[-95.08135,46.81339],[-95.06229,46.81477],[-95.0447,46.81589],[-95.02858,46.81675],[-95.01392,46.81734],[-95.00073,46.81766],[-94.98901,46.81772],[-94.97875,46.81751],[-94.96996,46.81704],[-94.96264,46.8163],[-94.95588,46.8154],[-94.9497,46.81434],[-94.94408,46.81311],[-94.93904,46.81172],[-94.93457,46.81017],[-94.93066,46.80846],[-94.92732,46.80658],[-94.92456,46.80454],[-94.92166,46.80271],[-94.91864,46.8011],[-94.91548,46.79969],[-94.91219,46.7985],[-94.90877,46.79752],[-94.90522,46.79675],[-94.90154,46.7962],[-94.89773,46.79586],[-94.8906,46.79552],[-94.88013,46.7952],[-94.86635,46.79488],[-94.84923,46.79457],[-94.82879,46.79427],[-94.80502,46.79398],[-94.77792,46.7937],[-94.7475,46.79343],[-94.72039,46.793],[-94.69659,46.79242],[-94.67609,46.79168],[-94.65891,46.79078],[-94.64504,46.78973],[-94.63447,46.78853],[-94.62721,46.78717],[-94.62327,46.78565],[-94.61689,46.78438],[-94.60809,46.78334],[-94.59686,46.78253],[-94.5832,46.78197],[-94.56712,46.78164],[-94.54861,46.78155],[-94.52767,46.7817],[-94.5043,46.78209],[-94.48204,46.78227],[-94.46089,46.78224],[-94.44085,46.782],[-94.42191,46.78155],[-94.40409,46.7809],[-94.38737,46.78003],[-94.37176,46.77896],[-94.35726,46.77768],[-94.34339,46.77747],[-94.33017,46.77831],[-94.31757,46.78022],[-94.30562,46.7832],[-94.2943,46.78723],[-94.28362,46.79233],[-94.27358,46.7985],[-94.26417,46.80572],[-94.25495,46.81204],[-94.24591,46.81744],[-94.23707,46.82194],[-94.2284,46.82553],[-94.21993,46.8282],[-94.21164,46.82997],[-94.20354,46.83082],[-94.19562,46.83077],[-94.18839,46.83094],[-94.18185,46.83134],[-94.17599,46.83196],[-94.17081,46.83281],[-94.16632,46.83389],[-94.16251,46.83519],[-94.15939,46.83672],[-94.15696,46.83847],[-94.15386,46.84006],[-94.15011,46.84148],[-94.14571,46.84274],[-94.14065,46.84382],[-94.13493,46.84474],[-94.12856,46.84549],[-94.12153,46.84608],[-94.11385,46.8465],[-94.10511,46.84682],[-94.09532,46.84705],[-94.08447,46.84719],[-94.07256,46.84723],[-94.0596,46.84718],[-94.04559,46.84704],[-94.03052,46.8468],[-94.01439,46.84647],[-93.99983,46.84649],[-93.98684,46.84685],[-93.97541,46.84757],[-93.96556,46.84864],[-93.95726,46.85005],[-93.95054,46.85181],[-93.94538,46.85393],[-93.94179,46.85639],[-93.93767,46.85855],[-93.93301,46.8604],[-93.92782,46.86194],[-93.92209,46.86318],[-93.91582,46.86412],[-93.90902,46.86475],[-93.90169,46.86507],[-93.89382,46.86509],[-93.88631,46.86541],[-93.87915,46.86604],[-93.87234,46.86698],[-93.86589,46.86822],[-93.85979,46.86977],[-93.85405,46.87162],[-93.84865,46.87379],[-93.84362,46.87625],[-93.8368,46.87811],[-93.82819,46.87935],[-93.8178,46.87998],[-93.80562,46.87999],[-93.79167,46.87939],[-93.77592,46.87818],[-93.7584,46.87635],[-93.73908,46.87391],[-93.71879,46.87167],[-93.69753,46.86963],[-93.67528,46.86779],[-93.65205,46.86614],[-93.62785,46.8647],[-93.60267,46.86346],[-93.57651,46.86241],[-93.54937,46.86156],[-93.52483,46.86105],[-93.50288,46.86087],[-93.48353,46.86103],[-93.46679,46.86151],[-93.45263,46.86233],[-93.44108,46.86349],[-93.43212,46.86497],[-93.42576,46.86679],[-93.41799,46.86838],[-93.4088,46.86973],[-93.3982,46.87084],[-93.38618,46.87172],[-93.37275,46.87236],[-93.3579,46.87277],[-93.34163,46.87294],[-93.32395,46.87288],[-93.30782,46.87303],[-93.29323,46.87338],[-93.28019,46.87395],[-93.2687,46.87473],[-93.25875,46.87571],[-93.25035,46.87691],[-93.24349,46.87832],[-93.23818,46.87993],[-93.22924,46.88139],[-93.21667,46.88268],[-93.20047,46.88381],[-93.18065,46.88478],[-93.1572,46.88559],[-93.13012,46.88623],[-93.09941,46.88672],[-93.06508,46.88704],[-93.0339,46.88721],[-93.00589,46.88724],[-92.98103,46.88712],[-92.95934,46.88685],[-92.94081,46.88643],[-92.92543,46.88587],[-92.91322,46.88516],[-92.90417,46.88431],[-92.89098,46.8801],[-92.87364,46.87256],[-92.85215,46.86167],[-92.82652,46.84743],[-92.79674,46.82986],[-92.76281,46.80893],[-92.72474,46.78466],[-92.68253,46.75705],[-92.64266,46.73192],[-92.60513,46.70927],[-92.56995,46.6891],[-92.53711,46.6714],[-92.50661,46.65619],[-92.47846,46.64346],[-92.45265,46.63321],[-92.42919,46.62544],[-92.40755,46.6186],[-92.38775,46.61269],[-92.36977,46.6077],[-92.35362,46.60365],[-92.3393,46.60052],[-92.32681,46.59832],[-92.31615,46.59706],[-92.30732,46.59672],[-92.29859,46.59666],[-92.28997,46.59688],[-92.28145,46.59739],[-92.27304,46.59818],[-92.26474,46.59925],[-92.25654,46.60061],[-92.24845,46.60224],[-92.24046,46.60416],[-92.23173,46.60654],[-92.22224,46.60938],[-92.21201,46.61269],[-92.20103,46.61646],[-92.1893,46.6207],[-92.17682,46.6254],[-92.16359,46.63056],[-92.14962,46.63619],[-92.13677,46.64161],[-92.12506,46.64683],[-92.11448,46.65185],[-92.10504,46.65666],[-92.09672,46.66128],[-92.08954,46.66568],[-92.08349,46.66989],[-92.07858,46.67389],[-92.07428,46.67739],[-92.07059,46.68039],[-92.06752,46.68289],[-92.06506,46.68489],[-92.06322,46.68639],[-92.06199,46.68739],[-92.06137,46.68789]],[[-92.40387,46.61293],[-92.3993,46.61145]],[[-92.86032,46.87183],[-92.84658,46.86164]]]}}]}