{"type":"FeatureCollection","features":[{"type":"Feature","properties":{"Name":"Line 5"},"geometry":{"type":"MultiLineString","coordinates":[[[-92.06141,46.68775],[-92.06105,46.68762],[-92.06034,46.68734],[-92.05927,46.68693],[-92.05785,46.68639],[-92.05607,46.6857],[-92.05393,46.68488],[-92.05144,46.68392],[-92.0486,46.68283],[-92.04592,46.68195],[-92.04342,46.68129],[-92.04109,46.68085],[-92.03892,46.68063],[-92.03693,46.68062],[-92.03512,46.68084],[-92.03347,46.68127],[-92.03199,46.68192],[-92.03042,46.68223],[-92.02876,46.68221],[-92.027,46.68185],[-92.02515,46.68116],[-92.0232,46.68013],[-92.02116,46.67876],[-92.01903,46.67706],[-92.0168,46.67503],[-92.01145,46.67281],[-92.003,46.67041],[-91.99142,46.66783],[-91.97673,46.66507],[-91.95892,46.66212],[-91.938,46.659],[-91.91397,46.65569],[-91.88682,46.6522],[-91.85458,46.64869],[-91.81727,46.64515],[-91.77487,46.64159],[-91.72739,46.63801],[-91.67482,46.6344],[-91.61717,46.63077],[-91.55444,46.62711],[-91.48663,46.62343],[-91.42381,46.61967],[-91.36599,46.61583],[-91.31316,46.6119],[-91.26533,46.6079],[-91.22249,46.6038],[-91.18464,46.59963],[-91.1518,46.59538],[-91.12394,46.59104],[-91.0992,46.58702],[-91.07758,46.58333],[-91.05907,46.57996],[-91.04368,46.5769],[-91.0314,46.57418],[-91.02223,46.57177],[-91.01618,46.56968],[-91.01325,46.56792],[-91.00678,46.56619],[-90.99678,46.5645],[-90.98325,46.56285],[-90.96619,46.56124],[-90.9456,46.55967],[-90.92147,46.55813],[-90.89381,46.55663],[-90.86262,46.55517],[-90.83165,46.55331],[-90.80089,46.55106],[-90.77034,46.5484],[-90.74,46.54535],[-90.70988,46.54189],[-90.67997,46.53804],[-90.65027,46.53379],[-90.62079,46.52915],[-90.59061,46.5247],[-90.55973,46.52046],[-90.52815,46.51642],[-90.49587,46.51258],[-90.46289,46.50895],[-90.42921,46.50552],[-90.39484,46.50229],[-90.35976,46.49927],[-90.32601,46.49691],[-90.29359,46.49521],[-90.2625,46.49418],[-90.23273,46.49381],[-90.20429,46.49411],[-90.17717,46.49507],[-90.15138,46.49669],[-90.12692,46.49898],[-90.10323,46.50086],[-90.0803,46.50233],[-90.05816,46.50339],[-90.03678,46.50404],[-90.01617,46.50429],[-89.99633,46.50412],[-89.97727,46.50355],[-89.95897,46.50257],[-89.94068,46.50029],[-89.92239,46.49671],[-89.90409,46.49182],[-89.8858,46.48564],[-89.86751,46.47815],[-89.84922,46.46937],[-89.83093,46.45928],[-89.81264,46.44789],[-89.79252,46.4371],[-89.77056,46.42688],[-89.74676,46.41726],[-89.72114,46.40822],[-89.69367,46.39977],[-89.66438,46.39191],[-89.63324,46.38464],[-89.60028,46.37795],[-89.57068,46.37155],[-89.54444,46.36545],[-89.52157,46.35963],[-89.50207,46.3541],[-89.48593,46.34886],[-89.47316,46.3439],[-89.46375,46.33924],[-89.45771,46.33487],[-89.45042,46.33045],[-89.44188,46.32599],[-89.43209,46.32148],[-89.42105,46.31693],[-89.40876,46.31233],[-89.39522,46.30769],[-89.38044,46.303],[-89.36441,46.29827],[-89.34748,46.29375],[-89.32966,46.28945],[-89.31095,46.28536],[-89.29134,46.28149],[-89.27085,46.27783],[-89.24946,46.27438],[-89.22717,46.27115],[-89.204,46.26813],[-89.18167,46.26436],[-89.1602,46.25984],[-89.13958,46.25456],[-89.1198,46.24853],[-89.10088,46.24174],[-89.0828,46.2342],[-89.06558,46.2259],[-89.04921,46.21685],[-89.03308,46.20851],[-89.01722,46.20088],[-89.0016,46.19396],[-88.98624,46.18776],[-88.97113,46.18226],[-88.95628,46.17748],[-88.94167,46.17341],[-88.92732,46.17006],[-88.91329,46.16702],[-88.89958,46.16431],[-88.88619,46.16191],[-88.87311,46.15984],[-88.86036,46.15809],[-88.84792,46.15667],[-88.8358,46.15556],[-88.824,46.15478],[-88.81266,46.15356],[-88.80176,46.1519],[-88.79132,46.1498],[-88.78133,46.14726],[-88.77178,46.14428],[-88.7627,46.14086],[-88.75406,46.13701],[-88.74587,46.13271],[-88.7371,46.12914],[-88.72773,46.12628],[-88.71776,46.12413],[-88.70721,46.1227],[-88.69606,46.12199],[-88.68432,46.122],[-88.67199,46.12272],[-88.65906,46.12416],[-88.64597,46.12498],[-88.63272,46.12518],[-88.61929,46.12476],[-88.6057,46.12373],[-88.59195,46.12208],[-88.57803,46.11981],[-88.56394,46.11692],[-88.54969,46.11342],[-88.53583,46.11039],[-88.52237,46.10784],[-88.50931,46.10577],[-88.49664,46.10418],[-88.48436,46.10306],[-88.47248,46.10243],[-88.461,46.10227],[-88.44992,46.10259],[-88.43944,46.10254],[-88.42959,46.10214],[-88.42034,46.10137],[-88.41171,46.10024],[-88.40369,46.09876],[-88.39628,46.0969],[-88.38949,46.09469],[-88.38331,46.09212],[-88.36678,46.09001],[-88.33991,46.08836],[-88.30269,46.08718],[-88.25512,46.08645],[-88.19721,46.08619],[-88.12896,46.0864],[-88.05036,46.08706],[-87.96141,46.08819],[-87.87308,46.08688],[-87.78537,46.08312],[-87.69828,46.07693],[-87.6118,46.0683],[-87.52595,46.05723],[-87.44072,46.04372],[-87.3561,46.02778],[-87.2721,46.00939],[-87.19408,45.99319],[-87.12204,45.97917],[-87.05597,45.96734],[-86.99587,45.9577],[-86.94175,45.95024],[-86.89361,45.94497],[-86.85144,45.94188],[-86.81525,45.94098],[-86.78214,45.94042],[-86.75211,45.94022],[-86.72517,45.94036],[-86.7013,45.94085],[-86.68052,45.94168],[-86.66282,45.94286],[-86.64821,45.94439],[-86.63667,45.94627],[-86.62248,45.94768],[-86.60563,45.94864],[-86.58611,45.94913],[-86.56394,45.94915],[-86.53911,45.94872],[-86.51162,45.94782],[-86.48147,45.94646],[-86.44866,45.94464],[-86.41938,45.94324],[-86.39361,45.94227],[-86.37136,45.94171],[-86.35264,45.94158],[-86.33743,45.94186],[-86.32575,45.94257],[-86.31759,45.9437],[-86.31294,45.94525],[-86.30862,45.94697],[-86.30461,45.94886],[-86.30092,45.95092],[-86.29755,45.95315],[-86.2945,45.95556],[-86.29176,45.95813],[-86.28934,45.96088],[-86.28724,45.96379],[-86.28361,45.96673],[-86.27844,45.96969],[-86.27175,45.97267],[-86.26352,45.97567],[-86.25377,45.9787],[-86.24248,45.98174],[-86.22966,45.98481],[-86.21531,45.9879],[-86.20029,45.99148],[-86.1846,45.99554],[-86.16824,46.00009],[-86.15121,46.00512],[-86.13352,46.01064],[-86.11515,46.01665],[-86.09612,46.02314],[-86.07642,46.03011],[-86.05821,46.03695],[-86.04148,46.04364],[-86.02625,46.05019],[-86.0125,46.05659],[-86.00024,46.06286],[-85.98948,46.06898],[-85.9802,46.07496],[-85.97241,46.0808],[-85.96102,46.08594],[-85.94603,46.09039],[-85.92744,46.09414],[-85.90525,46.09719],[-85.87947,46.09955],[-85.85008,46.10121],[-85.8171,46.10217],[-85.78051,46.10244],[-85.74638,46.10297],[-85.71472,46.10375],[-85.68551,46.10479],[-85.65876,46.10609],[-85.63446,46.10765],[-85.61263,46.10946],[-85.59325,46.11153],[-85.57634,46.11385],[-85.5585,46.11577],[-85.53973,46.11728],[-85.52004,46.11838],[-85.49943,46.11908],[-85.4779,46.11937],[-85.45544,46.11925],[-85.43206,46.11872],[-85.40776,46.11779],[-85.38469,46.11653],[-85.36287,46.11495],[-85.34228,46.11305],[-85.32294,46.11083],[-85.30483,46.10828],[-85.28797,46.10541],[-85.27234,46.10222],[-85.25796,46.0987],[-85.24276,46.09471],[-85.22674,46.09024],[-85.20991,46.08528],[-85.19227,46.07984],[-85.17381,46.07393],[-85.15453,46.06753],[-85.13444,46.06065],[-85.11354,46.05329],[-85.09122,46.04456],[-85.0675,46.03445],[-85.04236,46.02297],[-85.01581,46.01011],[-84.98785,45.99588],[-84.95849,45.98028],[-84.92771,45.9633],[-84.89551,45.94494],[-84.86691,45.92839],[-84.84188,45.91362],[-84.82045,45.90066],[-84.80259,45.88949],[-84.78832,45.88011],[-84.77763,45.87253],[-84.77053,45.86675],[-84.76701,45.86276],[-84.76424,45.85817],[-84.76221,45.85295],[-84.76094,45.84713],[-84.76042,45.84069],[-84.76064,45.83364],[-84.76161,45.82598],[-84.76334,45.8177],[-84.76581,45.80882],[-84.76729,45.80028],[-84.7678,45.79209],[-84.76731,45.78424],[-84.76584,45.77675],[-84.76338,45.7696],[-84.75994,45.76281],[-84.75552,45.75636],[-84.7501,45.75026],[-84.74508,45.74375],[-84.74043,45.73681],[-84.73618,45.72946],[-84.7323,45.72169],[-84.72882,45.71351],[-84.72571,45.70491],[-84.723,45.69589],[-84.72066,45.68646],[-84.71815,45.67795],[-84.71545,45.67036],[-84.71256,45.66371],[-84.70949,45.65798],[-84.70623,45.65317],[-84.70279,45.64929],[-84.69917,45.64634],[-84.69536,45.64431],[-84.69137,45.64162],[-84.68721,45.63826],[-84.68287,45.63424],[-84.67836,45.62955],[-84.67366,45.6242],[-84.66879,45.61818],[-84.66375,45.6115],[-84.65852,45.60415],[-84.65355,45.59533],[-84.64884,45.58503],[-84.64439,45.57327],[-84.64019,45.56002],[-84.63625,45.54531],[-84.63256,45.52912],[-84.62913,45.51145],[-84.62596,45.49232],[-84.62222,45.47399],[-84.61791,45.45648],[-84.61304,45.43978],[-84.60761,45.42389],[-84.60161,45.40881],[-84.59504,45.39454],[-84.58791,45.38109],[-84.58022,45.36845],[-84.57235,45.35366],[-84.56431,45.33674],[-84.55611,45.31769],[-84.54773,45.29649],[-84.53918,45.27316],[-84.53046,45.24769],[-84.52157,45.22008],[-84.51251,45.19033],[-84.50311,45.16118],[-84.49336,45.13264],[-84.48327,45.1047],[-84.47285,45.07736],[-84.46208,45.05062],[-84.45096,45.02449],[-84.43951,44.99896],[-84.42772,44.97403],[-84.41603,44.94856],[-84.40444,44.92253],[-84.39297,44.89596],[-84.3816,44.86884],[-84.37034,44.84117],[-84.35918,44.81296],[-84.34813,44.78419],[-84.33719,44.75488],[-84.32714,44.72755],[-84.31799,44.70221],[-84.30974,44.67886],[-84.30239,44.65749],[-84.29594,44.6381],[-84.29038,44.6207],[-84.28572,44.60529],[-84.28196,44.59186],[-84.2787,44.57949],[-84.27592,44.56818],[-84.27364,44.55793],[-84.27186,44.54874],[-84.27057,44.54061],[-84.26977,44.53354],[-84.26947,44.52753],[-84.26967,44.52258],[-84.26893,44.51625],[-84.26727,44.50855],[-84.26469,44.49947],[-84.26117,44.48902],[-84.25674,44.47719],[-84.25137,44.46399],[-84.24508,44.44941],[-84.23786,44.43345],[-84.23119,44.41759],[-84.22507,44.40184],[-84.21949,44.38618],[-84.21446,44.37063],[-84.20998,44.35517],[-84.20605,44.33982],[-84.20266,44.32456],[-84.19981,44.30941],[-84.19507,44.29052],[-84.18844,44.26791],[-84.1799,44.24156],[-84.16947,44.21148],[-84.15715,44.17768],[-84.14292,44.14014],[-84.1268,44.09887],[-84.10878,44.05387],[-84.09197,44.00951],[-84.07637,43.96579],[-84.06198,43.9227],[-84.0488,43.88026],[-84.03683,43.83845],[-84.02606,43.79728],[-84.0165,43.75675],[-84.00815,43.71686],[-84.00024,43.68155],[-83.99276,43.65082],[-83.98571,43.62467],[-83.97909,43.6031],[-83.97291,43.58611],[-83.96715,43.5737],[-83.96184,43.56587],[-83.95695,43.56262],[-83.95046,43.55964],[-83.94237,43.55692],[-83.93268,43.55447],[-83.92138,43.55228],[-83.90849,43.55036],[-83.89399,43.5487],[-83.87788,43.54731],[-83.86018,43.54619],[-83.84335,43.54411],[-83.82739,43.54109],[-83.8123,43.53711],[-83.79809,43.53218],[-83.78475,43.5263],[-83.77228,43.51947],[-83.76068,43.51169],[-83.74996,43.50296],[-83.74059,43.49481],[-83.73259,43.48724],[-83.72593,43.48026],[-83.72064,43.47385],[-83.71671,43.46803],[-83.71413,43.46278],[-83.71291,43.45812],[-83.71304,43.45404],[-83.71255,43.45041],[-83.71144,43.44724],[-83.7097,43.44451],[-83.70734,43.44224],[-83.70435,43.44041],[-83.70073,43.43904],[-83.69649,43.43812],[-83.69163,43.43765],[-83.68601,43.43638],[-83.67963,43.43431],[-83.67251,43.43143],[-83.66463,43.42775],[-83.65599,43.42327],[-83.64661,43.41799],[-83.63647,43.4119],[-83.62557,43.40501],[-83.6155,43.39896],[-83.60624,43.39375],[-83.5978,43.38937],[-83.59018,43.38582],[-83.58337,43.38312],[-83.57739,43.38125],[-83.57222,43.38021],[-83.56787,43.38001],[-83.56361,43.37954],[-83.55945,43.37878],[-83.55538,43.37775],[-83.5514,43.37644],[-83.54752,43.37485],[-83.54372,43.37299],[-83.54003,43.37084],[-83.53642,43.36842],[-83.52959,43.36523],[-83.51952,43.36126],[-83.50622,43.35653],[-83.48969,43.35102],[-83.46992,43.34475],[-83.44693,43.3377],[-83.4207,43.32988],[-83.39124,43.32129],[-83.36294,43.31254],[-83.33579,43.30362],[-83.3098,43.29453],[-83.28496,43.28528],[-83.26128,43.27587],[-83.23876,43.26628],[-83.21739,43.25653],[-83.19718,43.24662],[-83.17873,43.23788],[-83.16204,43.23031],[-83.14711,43.22391],[-83.13395,43.21869],[-83.12254,43.21463],[-83.11289,43.21175],[-83.105,43.21004],[-83.09888,43.2095],[-83.09226,43.20818],[-83.08515,43.20609],[-83.07754,43.20321],[-83.06944,43.19955],[-83.06085,43.1951],[-83.05176,43.18988],[-83.04219,43.18388],[-83.03212,43.1771],[-83.02206,43.17073],[-83.01203,43.16477],[-83.00202,43.15922],[-82.99204,43.15408],[-82.98207,43.14935],[-82.97212,43.14503],[-82.96219,43.14112],[-82.95228,43.13763],[-82.94062,43.13289],[-82.92719,43.1269],[-82.91201,43.11968],[-82.89507,43.11121],[-82.87637,43.1015],[-82.85591,43.09054],[-82.8337,43.07834],[-82.80972,43.0649],[-82.78705,43.05251],[-82.7657,43.04117],[-82.74565,43.03088],[-82.72691,43.02165],[-82.70948,43.01347],[-82.69336,43.00635],[-82.67854,43.00027],[-82.66504,42.99525],[-82.65154,42.98968],[-82.63803,42.98354],[-82.62452,42.97685],[-82.61101,42.9696],[-82.5975,42.96179],[-82.58399,42.95343],[-82.57047,42.94451],[-82.55696,42.93503],[-82.54465,42.92672],[-82.53356,42.91958],[-82.52367,42.91361],[-82.515,42.90881],[-82.50753,42.90518],[-82.50127,42.90272],[-82.49623,42.90143],[-82.49239,42.90131],[-82.48903,42.9012],[-82.48615,42.90111],[-82.48376,42.90104],[-82.48184,42.90097],[-82.4804,42.90093],[-82.47944,42.9009],[-82.47896,42.90088]]]}}]}