{"type":"FeatureCollection","features":[{"type":"Feature","properties":{"Name":"Line 6"},"geometry":{"type":"MultiLineString","coordinates":[[[-92.06138,46.68754],[-92.06133,46.68704],[-92.06122,46.68606],[-92.06106,46.68458],[-92.06085,46.68261],[-92.06059,46.68014],[-92.06027,46.67718],[-92.05989,46.67373],[-92.05947,46.66978],[-92.05768,46.66471],[-92.05452,46.6585],[-92.05,46.65115],[-92.04411,46.64268],[-92.03685,46.63307],[-92.02823,46.62233],[-92.01824,46.61045],[-92.00689,46.59744],[-91.99553,46.58392],[-91.98417,46.56988],[-91.97281,46.55532],[-91.96145,46.54024],[-91.95009,46.52464],[-91.93872,46.50853],[-91.92735,46.4919],[-91.91598,46.47475],[-91.90487,46.45731],[-91.89402,46.43958],[-91.88342,46.42156],[-91.87309,46.40326],[-91.86302,46.38466],[-91.8532,46.36577],[-91.84364,46.3466],[-91.83435,46.32713],[-91.82522,46.30854],[-91.81625,46.29081],[-91.80746,46.27396],[-91.79883,46.25798],[-91.79038,46.24286],[-91.78209,46.22862],[-91.77396,46.21525],[-91.76601,46.20275],[-91.75659,46.18865],[-91.74571,46.17295],[-91.73337,46.15566],[-91.71957,46.13677],[-91.7043,46.11628],[-91.68757,46.09419],[-91.66938,46.07051],[-91.64973,46.04523],[-91.63089,46.02159],[-91.61286,45.99958],[-91.59564,45.97921],[-91.57924,45.96047],[-91.56365,45.94337],[-91.54888,45.9279],[-91.53491,45.91407],[-91.52176,45.90187],[-91.51018,45.89084],[-91.50016,45.88096],[-91.49171,45.87225],[-91.48482,45.86469],[-91.4795,45.8583],[-91.47574,45.85307],[-91.47355,45.849],[-91.47292,45.84609],[-91.47192,45.84313],[-91.47054,45.84013],[-91.46878,45.83708],[-91.46665,45.83399],[-91.46414,45.83085],[-91.46125,45.82766],[-91.45799,45.82442],[-91.45435,45.82114],[-91.45114,45.8176],[-91.44836,45.81379],[-91.446,45.80972],[-91.44408,45.80539],[-91.44258,45.80079],[-91.44152,45.79592],[-91.44088,45.7908],[-91.44067,45.78541],[-91.43988,45.78069],[-91.4385,45.77665],[-91.43653,45.77328],[-91.43398,45.77058],[-91.43085,45.76856],[-91.42713,45.76722],[-91.42282,45.76654],[-91.41793,45.76654],[-91.41082,45.76362],[-91.40148,45.75777],[-91.38993,45.749],[-91.37615,45.73731],[-91.36016,45.72269],[-91.34194,45.70515],[-91.3215,45.68469],[-91.29884,45.6613],[-91.2777,45.63869],[-91.25809,45.61687],[-91.24001,45.59582],[-91.22345,45.57556],[-91.20842,45.55608],[-91.19492,45.53737],[-91.18294,45.51945],[-91.17248,45.50231],[-91.1622,45.4865],[-91.15209,45.47203],[-91.14215,45.45888],[-91.13239,45.44707],[-91.12279,45.43659],[-91.11337,45.42744],[-91.10412,45.41963],[-91.09505,45.41314],[-91.08433,45.40492],[-91.07197,45.39495],[-91.05796,45.38325],[-91.04232,45.36981],[-91.02503,45.35462],[-91.00611,45.3377],[-90.98554,45.31904],[-90.96332,45.29863],[-90.94199,45.27875],[-90.92154,45.25938],[-90.90196,45.24053],[-90.88326,45.2222],[-90.86544,45.20438],[-90.84849,45.18709],[-90.83243,45.17031],[-90.81724,45.15405],[-90.80192,45.13838],[-90.78646,45.12331],[-90.77086,45.10884],[-90.75512,45.09496],[-90.73925,45.08168],[-90.72324,45.06899],[-90.7071,45.0569],[-90.69082,45.0454],[-90.6757,45.03431],[-90.66175,45.02363],[-90.64897,45.01337],[-90.63735,45.00351],[-90.6269,44.99406],[-90.61762,44.98502],[-90.6095,44.97639],[-90.60255,44.96817],[-90.59514,44.96017],[-90.58728,44.9524],[-90.57897,44.94484],[-90.5702,44.93751],[-90.56098,44.9304],[-90.5513,44.92351],[-90.54117,44.91684],[-90.53058,44.91039],[-90.51873,44.90265],[-90.50561,44.8936],[-90.49121,44.88325],[-90.47555,44.87161],[-90.45862,44.85866],[-90.44042,44.84441],[-90.42095,44.82886],[-90.40021,44.81201],[-90.37878,44.79401],[-90.35667,44.77485],[-90.33387,44.75454],[-90.31039,44.73307],[-90.28622,44.71046],[-90.26136,44.68668],[-90.23582,44.66176],[-90.20959,44.63568],[-90.18385,44.61067],[-90.1586,44.58673],[-90.13385,44.56385],[-90.10958,44.54205],[-90.08581,44.52131],[-90.06253,44.50164],[-90.03974,44.48304],[-90.01744,44.46551],[-89.99764,44.44978],[-89.98033,44.43585],[-89.96552,44.42373],[-89.95321,44.4134],[-89.94339,44.40488],[-89.93607,44.39816],[-89.93125,44.39324],[-89.92893,44.39013],[-89.92691,44.38623],[-89.92519,44.38156],[-89.92379,44.37612],[-89.92269,44.3699],[-89.92189,44.36291],[-89.9214,44.35514],[-89.92122,44.34659],[-89.92135,44.33727],[-89.92085,44.32885],[-89.91972,44.32134],[-89.91798,44.31473],[-89.91561,44.30903],[-89.91262,44.30423],[-89.909,44.30034],[-89.90476,44.29735],[-89.8999,44.29527],[-89.89495,44.2928],[-89.88992,44.28994],[-89.88481,44.28669],[-89.87962,44.28306],[-89.87434,44.27904],[-89.86898,44.27464],[-89.86354,44.26985],[-89.85801,44.26467],[-89.85247,44.25813],[-89.84692,44.25025],[-89.84135,44.24101],[-89.83576,44.23041],[-89.83016,44.21846],[-89.82454,44.20516],[-89.8189,44.19051],[-89.81325,44.1745],[-89.807,44.15829],[-89.80015,44.14189],[-89.79268,44.12529],[-89.78462,44.10849],[-89.77595,44.09149],[-89.76668,44.0743],[-89.7568,44.0569],[-89.74632,44.03931],[-89.73471,44.02095],[-89.72195,44.00183],[-89.70807,43.98193],[-89.69304,43.96126],[-89.67689,43.93983],[-89.65959,43.91762],[-89.64116,43.89465],[-89.6216,43.87091],[-89.60394,43.84892],[-89.58818,43.8287],[-89.57433,43.81022],[-89.56238,43.79351],[-89.55234,43.77855],[-89.5442,43.76535],[-89.53796,43.7539],[-89.53363,43.74422],[-89.52788,43.73397],[-89.52069,43.72317],[-89.51208,43.7118],[-89.50204,43.69988],[-89.49057,43.6874],[-89.47768,43.67436],[-89.46336,43.66076],[-89.44761,43.64661],[-89.43284,43.63358],[-89.41905,43.62167],[-89.40624,43.61089],[-89.39441,43.60124],[-89.38356,43.59271],[-89.37368,43.5853],[-89.36479,43.57903],[-89.35687,43.57387],[-89.34975,43.56889],[-89.34342,43.56408],[-89.33787,43.55943],[-89.33312,43.55496],[-89.32915,43.55066],[-89.32597,43.54652],[-89.32359,43.54256],[-89.32199,43.53876],[-89.31915,43.53426],[-89.31506,43.52905],[-89.30972,43.52314],[-89.30313,43.51652],[-89.2953,43.50919],[-89.28621,43.50116],[-89.27588,43.49243],[-89.2643,43.48299],[-89.25276,43.47302],[-89.24125,43.46253],[-89.22977,43.45152],[-89.21833,43.43999],[-89.20693,43.42794],[-89.19556,43.41536],[-89.18422,43.40226],[-89.17292,43.38864],[-89.16115,43.37362],[-89.1489,43.35722],[-89.13619,43.33942],[-89.12301,43.32023],[-89.10936,43.29965],[-89.09523,43.27767],[-89.08064,43.2543],[-89.06558,43.22955],[-89.05225,43.20729],[-89.04064,43.18755],[-89.03077,43.17031],[-89.02264,43.15557],[-89.01623,43.14334],[-89.01155,43.13362],[-89.0086,43.1264],[-89.00739,43.12169],[-89.00562,43.11695],[-89.00329,43.11217],[-89.0004,43.10737],[-88.99695,43.10253],[-88.99295,43.09766],[-88.98839,43.09276],[-88.98327,43.08783],[-88.97759,43.08287],[-88.97246,43.07756],[-88.96787,43.07191],[-88.96382,43.06591],[-88.96031,43.05957],[-88.95735,43.05288],[-88.95494,43.04585],[-88.95306,43.03848],[-88.95173,43.03076],[-88.94955,43.02262],[-88.94651,43.01407],[-88.94263,43.0051],[-88.93789,42.99571],[-88.9323,42.98591],[-88.92586,42.97569],[-88.91857,42.96505],[-88.91042,42.954],[-88.90267,42.9438],[-88.89531,42.93447],[-88.88835,42.92599],[-88.88177,42.91838],[-88.8756,42.91162],[-88.86981,42.90572],[-88.86442,42.90069],[-88.85942,42.89651],[-88.85376,42.8904],[-88.84744,42.88237],[-88.84046,42.8724],[-88.83283,42.8605],[-88.82453,42.84667],[-88.81557,42.83091],[-88.80595,42.81322],[-88.79567,42.7936],[-88.78567,42.77514],[-88.77594,42.75785],[-88.7665,42.74171],[-88.75733,42.72674],[-88.74845,42.71292],[-88.73984,42.70027],[-88.73151,42.68879],[-88.72346,42.67846],[-88.71556,42.6679],[-88.70782,42.6571],[-88.70023,42.64607],[-88.69279,42.63481],[-88.68551,42.62331],[-88.67838,42.61158],[-88.67141,42.59962],[-88.66459,42.58742],[-88.65687,42.57535],[-88.64825,42.5634],[-88.63873,42.55158],[-88.62831,42.53988],[-88.61699,42.52831],[-88.60478,42.51686],[-88.59166,42.50554],[-88.57765,42.49434],[-88.56358,42.48357],[-88.54945,42.47321],[-88.53527,42.46326],[-88.52104,42.45374],[-88.50675,42.44463],[-88.49241,42.43594],[-88.47801,42.42767],[-88.46356,42.41981],[-88.44996,42.41193],[-88.43722,42.40403],[-88.42534,42.3961],[-88.41431,42.38814],[-88.40414,42.38016],[-88.39482,42.37216],[-88.38637,42.36412],[-88.37876,42.35607],[-88.37133,42.34868],[-88.36407,42.34196],[-88.35699,42.33592],[-88.35008,42.33054],[-88.34334,42.32583],[-88.33677,42.32178],[-88.33038,42.31841],[-88.32416,42.31571],[-88.31854,42.31295],[-88.31354,42.31014],[-88.30914,42.30727],[-88.30534,42.30435],[-88.30216,42.30137],[-88.29958,42.29833],[-88.29761,42.29525],[-88.29624,42.2921],[-88.29422,42.28935],[-88.29154,42.287],[-88.2882,42.28504],[-88.2842,42.28348],[-88.27954,42.28231],[-88.27423,42.28154],[-88.26826,42.28116],[-88.26163,42.28118],[-88.25582,42.27602],[-88.25082,42.26569],[-88.24665,42.25017],[-88.24329,42.22948],[-88.24076,42.20361],[-88.23904,42.17257],[-88.23814,42.13634],[-88.23806,42.09494],[-88.23774,42.05848],[-88.2372,42.02695],[-88.23642,42.00037],[-88.23541,41.97872],[-88.23417,41.96201],[-88.23269,41.95023],[-88.23099,41.9434],[-88.22905,41.9415],[-88.22738,41.93875],[-88.22597,41.93517],[-88.22484,41.93074],[-88.22397,41.92546],[-88.22337,41.91934],[-88.22304,41.91238],[-88.22298,41.90457],[-88.22318,41.89592],[-88.22317,41.88823],[-88.22293,41.8815],[-88.22248,41.87574],[-88.22181,41.87095],[-88.22091,41.86711],[-88.2198,41.86424],[-88.21847,41.86234],[-88.21692,41.86139],[-88.21561,41.86002],[-88.21453,41.85822],[-88.2137,41.85598],[-88.21311,41.85331],[-88.21275,41.85021],[-88.21264,41.84668],[-88.21276,41.84272],[-88.21313,41.83832],[-88.21369,41.83422],[-88.21446,41.83041],[-88.21542,41.82688],[-88.21659,41.82365],[-88.21795,41.82071],[-88.21951,41.81806],[-88.22128,41.81569],[-88.22324,41.81362],[-88.22502,41.80961],[-88.22662,41.80366],[-88.22803,41.79578],[-88.22925,41.78595],[-88.2303,41.77419],[-88.23116,41.7605],[-88.23183,41.74486],[-88.23232,41.72729],[-88.23106,41.71194],[-88.22804,41.69883],[-88.22327,41.68794],[-88.21674,41.67928],[-88.20845,41.67286],[-88.19841,41.66866],[-88.18662,41.66669],[-88.17306,41.66696],[-88.16111,41.66661],[-88.15074,41.66567],[-88.14196,41.66413],[-88.13478,41.66198],[-88.12919,41.65923],[-88.12519,41.65588],[-88.12279,41.65192],[-88.12197,41.64737],[-88.11968,41.64342],[-88.11592,41.64008],[-88.11068,41.63736],[-88.10397,41.63524],[-88.09578,41.63373],[-88.08612,41.63284],[-88.07499,41.63255],[-88.06238,41.63287],[-88.04997,41.63297],[-88.03778,41.63283],[-88.02579,41.63247],[-88.014,41.63187],[-88.00243,41.63105],[-87.99106,41.62999],[-87.97989,41.62871],[-87.96894,41.6272],[-87.9576,41.62384],[-87.94588,41.61865],[-87.93379,41.61161],[-87.92132,41.60273],[-87.90847,41.592],[-87.89523,41.57944],[-87.88162,41.56504],[-87.86764,41.54879],[-87.85214,41.53446],[-87.83514,41.52204],[-87.81662,41.51154],[-87.79661,41.50295],[-87.77508,41.49628],[-87.75205,41.49152],[-87.7275,41.48868],[-87.70146,41.48775],[-87.6786,41.48716],[-87.65893,41.4869],[-87.64245,41.48698],[-87.62916,41.48739],[-87.61907,41.48814],[-87.61216,41.48923],[-87.60845,41.49065],[-87.60792,41.49241],[-87.60596,41.49394],[-87.60255,41.49523],[-87.59771,41.4963],[-87.59142,41.49714],[-87.5837,41.49776],[-87.57453,41.49814],[-87.56393,41.49829],[-87.55188,41.49822],[-87.54041,41.49833],[-87.52952,41.49863],[-87.51919,41.49911],[-87.50944,41.49978],[-87.50026,41.50064],[-87.49165,41.50169],[-87.48362,41.50292],[-87.47616,41.50433],[-87.46963,41.50557],[-87.46403,41.50664],[-87.45937,41.50752],[-87.45564,41.50823],[-87.45284,41.50876],[-87.45097,41.50912],[-87.45004,41.50929]],[[-88.88191,42.92783],[-88.87594,42.9113]]]}}]}