{"type":"FeatureCollection","features":[{"type":"Feature","properties":{"Name":"Line 61"},"geometry":{"type":"MultiLineString","coordinates":[[[-92.06138,46.68754],[-92.06133,46.68704],[-92.06122,46.68606],[-92.06106,46.68458],[-92.06085,46.68261],[-92.06059,46.68014],[-92.06027,46.67718],[-92.05989,46.67373],[-92.05947,46.66978],[-92.05768,46.66471],[-92.05452,46.6585],[-92.05,46.65115],[-92.04411,46.64268],[-92.03685,46.63307],[-92.02823,46.62233],[-92.01824,46.61045],[-92.00689,46.59744],[-91.99553,46.58392],[-91.98417,46.56988],[-91.97281,46.55532],[-91.96145,46.54024],[-91.95009,46.52464],[-91.93872,46.50853],[-91.92735,46.4919],[-91.91598,46.47475],[-91.90487,46.45731],[-91.89402,46.43958],[-91.88342,46.42156],[-91.87309,46.40326],[-91.86302,46.38466],[-91.8532,46.36577],[-91.84364,46.3466],[-91.83435,46.32713],[-91.82522,46.30854],[-91.81625,46.29081],[-91.80746,46.27396],[-91.79883,46.25798],[-91.79038,46.24286],[-91.78209,46.22862],[-91.77396,46.21525],[-91.76601,46.20275],[-91.75659,46.18865],[-91.74571,46.17295],[-91.73337,46.15566],[-91.71957,46.13677],[-91.7043,46.11628],[-91.68757,46.09419],[-91.66938,46.07051],[-91.64973,46.04523],[-91.63089,46.02159],[-91.61286,45.99958],[-91.59564,45.97921],[-91.57924,45.96047],[-91.56365,45.94337],[-91.54888,45.9279],[-91.53491,45.91407],[-91.52176,45.90187],[-91.51018,45.89084],[-91.50016,45.88096],[-91.49171,45.87225],[-91.48482,45.86469],[-91.4795,45.8583],[-91.47574,45.85307],[-91.47355,45.849],[-91.47292,45.84609],[-91.47192,45.84313],[-91.47054,45.84013],[-91.46878,45.83708],[-91.46665,45.83399],[-91.46414,45.83085],[-91.46125,45.82766],[-91.45799,45.82442],[-91.45435,45.82114],[-91.45114,45.8176],[-91.44836,45.81379],[-91.446,45.80972],[-91.44408,45.80539],[-91.44258,45.80079],[-91.44152,45.79592],[-91.44088,45.7908],[-91.44067,45.78541],[-91.43988,45.78069],[-91.4385,45.77665],[-91.43653,45.77328],[-91.43398,45.77058],[-91.43085,45.76856],[-91.42713,45.76722],[-91.42282,45.76654],[-91.41793,45.76654],[-91.41082,45.76362],[-91.40148,45.75777],[-91.38993,45.749],[-91.37615,45.73731],[-91.36016,45.72269],[-91.34194,45.70515],[-91.3215,45.68469],[-91.29884,45.6613],[-91.2777,45.63869],[-91.25809,45.61687],[-91.24001,45.59582],[-91.22345,45.57556],[-91.20842,45.55608],[-91.19492,45.53737],[-91.18294,45.51945],[-91.17248,45.50231],[-91.1622,45.4865],[-91.15209,45.47203],[-91.14215,45.45888],[-91.13239,45.44707],[-91.12279,45.43659],[-91.11337,45.42744],[-91.10412,45.41963],[-91.09505,45.41314],[-91.08433,45.40492],[-91.07197,45.39495],[-91.05796,45.38325],[-91.04232,45.36981],[-91.02503,45.35462],[-91.00611,45.3377],[-90.98554,45.31904],[-90.96332,45.29863],[-90.94199,45.27875],[-90.92154,45.25938],[-90.90196,45.24053],[-90.88326,45.2222],[-90.86544,45.20438],[-90.84849,45.18709],[-90.83243,45.17031],[-90.81724,45.15405],[-90.80192,45.13838],[-90.78646,45.12331],[-90.77086,45.10884],[-90.75512,45.09496],[-90.73925,45.08168],[-90.72324,45.06899],[-90.7071,45.0569],[-90.69082,45.0454],[-90.6757,45.03431],[-90.66175,45.02363],[-90.64897,45.01337],[-90.63735,45.00351],[-90.6269,44.99406],[-90.61762,44.98502],[-90.6095,44.97639],[-90.60255,44.96817],[-90.59514,44.96017],[-90.58728,44.9524],[-90.57897,44.94484],[-90.5702,44.93751],[-90.56098,44.9304],[-90.5513,44.92351],[-90.54117,44.91684],[-90.53058,44.91039],[-90.51873,44.90265],[-90.50561,44.8936],[-90.49121,44.88325],[-90.47555,44.87161],[-90.45862,44.85866],[-90.44042,44.84441],[-90.42095,44.82886],[-90.40021,44.81201],[-90.37878,44.79401],[-90.35667,44.77485],[-90.33387,44.75454],[-90.31039,44.73307],[-90.28622,44.71046],[-90.26136,44.68668],[-90.23582,44.66176],[-90.20959,44.63568],[-90.18379,44.6106],[-90.15841,44.58651],[-90.13346,44.56342],[-90.10894,44.54132],[-90.08485,44.52022],[-90.06118,44.50011],[-90.03794,44.481],[-90.01513,44.46288],[-89.99494,44.44671],[-89.97738,44.43249],[-89.96244,44.42022],[-89.95013,44.4099],[-89.94044,44.40152],[-89.93338,44.39509],[-89.92894,44.39061],[-89.92713,44.38808],[-89.92556,44.3847],[-89.92423,44.38047],[-89.92314,44.37539],[-89.9223,44.36946],[-89.9217,44.36269],[-89.92134,44.35506],[-89.92122,44.34659],[-89.92135,44.33727],[-89.92085,44.32885],[-89.91972,44.32134],[-89.91798,44.31473],[-89.91561,44.30903],[-89.91262,44.30423],[-89.909,44.30034],[-89.90476,44.29735],[-89.8999,44.29527],[-89.89495,44.2928],[-89.88992,44.28994],[-89.88481,44.28669],[-89.87962,44.28306],[-89.87434,44.27904],[-89.86898,44.27464],[-89.86354,44.26985],[-89.85801,44.26467],[-89.85264,44.25852],[-89.84743,44.2514],[-89.84237,44.2433],[-89.83746,44.23424],[-89.83271,44.22421],[-89.82812,44.2132],[-89.82368,44.20122],[-89.81939,44.18828],[-89.81487,44.17547],[-89.8101,44.16279],[-89.8051,44.15025],[-89.79986,44.13784],[-89.79439,44.12556],[-89.78867,44.11343],[-89.78272,44.10142],[-89.77653,44.08955],[-89.76796,44.0751],[-89.75702,44.05807],[-89.74369,44.03845],[-89.72799,44.01626],[-89.7099,43.99148],[-89.68944,43.96412],[-89.6666,43.93417],[-89.64138,43.90165],[-89.61877,43.87198],[-89.59878,43.84516],[-89.58139,43.8212],[-89.56662,43.8001],[-89.55446,43.78184],[-89.5449,43.76645],[-89.53796,43.7539],[-89.53363,43.74422],[-89.52788,43.73397],[-89.52069,43.72317],[-89.51208,43.7118],[-89.50204,43.69988],[-89.49057,43.6874],[-89.47768,43.67436],[-89.46336,43.66076],[-89.44761,43.64661],[-89.43284,43.63358],[-89.41905,43.62167],[-89.40624,43.61089],[-89.39441,43.60124],[-89.38356,43.59271],[-89.37368,43.5853],[-89.36479,43.57903],[-89.35687,43.57387],[-89.34975,43.56889],[-89.34342,43.56408],[-89.33787,43.55943],[-89.33312,43.55496],[-89.32915,43.55066],[-89.32597,43.54652],[-89.32359,43.54256],[-89.32199,43.53876],[-89.31915,43.53426],[-89.31506,43.52905],[-89.30972,43.52314],[-89.30313,43.51652],[-89.2953,43.50919],[-89.28621,43.50116],[-89.27588,43.49243],[-89.2643,43.48299],[-89.25296,43.47328],[-89.24186,43.46331],[-89.23099,43.45308],[-89.22036,43.44259],[-89.20997,43.43183],[-89.19982,43.42082],[-89.1899,43.40954],[-89.18022,43.39799],[-89.16967,43.38454],[-89.15824,43.36917],[-89.14593,43.35189],[-89.13275,43.3327],[-89.11869,43.3116],[-89.10376,43.28858],[-89.08795,43.26366],[-89.07126,43.23682],[-89.05651,43.21275],[-89.04369,43.19145],[-89.0328,43.17291],[-89.02385,43.15713],[-89.01684,43.14412],[-89.01175,43.13388],[-89.0086,43.1264],[-89.00739,43.12169],[-89.00562,43.11695],[-89.00329,43.11217],[-89.0004,43.10737],[-88.99695,43.10253],[-88.99295,43.09766],[-88.98839,43.09276],[-88.98327,43.08783],[-88.97759,43.08287],[-88.97246,43.07756],[-88.96787,43.07191],[-88.96382,43.06591],[-88.96031,43.05957],[-88.95735,43.05288],[-88.95494,43.04585],[-88.95306,43.03848],[-88.95173,43.03076],[-88.94955,43.02262],[-88.94651,43.01407],[-88.94263,43.0051],[-88.93789,42.99571],[-88.9323,42.98591],[-88.92586,42.97569],[-88.91857,42.96505],[-88.91042,42.954],[-88.90267,42.9438],[-88.89531,42.93447],[-88.88835,42.92599],[-88.88177,42.91838],[-88.8756,42.91162],[-88.86981,42.90572],[-88.86442,42.90069],[-88.85942,42.89651],[-88.85437,42.89156],[-88.84928,42.88584],[-88.84413,42.87935],[-88.83894,42.87209],[-88.83369,42.86406],[-88.8284,42.85526],[-88.82306,42.84568],[-88.81767,42.83534],[-88.81311,42.82552],[-88.80938,42.81622],[-88.80648,42.80745],[-88.8044,42.79921],[-88.80316,42.79149],[-88.80275,42.78429],[-88.80317,42.77762],[-88.80442,42.77147],[-88.80523,42.76401],[-88.80561,42.75526],[-88.80556,42.74519],[-88.80506,42.73382],[-88.80414,42.72114],[-88.80277,42.70716],[-88.80098,42.69187],[-88.79874,42.67527],[-88.79717,42.6593],[-88.79627,42.64396],[-88.79602,42.62925],[-88.79645,42.61517],[-88.79753,42.60171],[-88.79928,42.58888],[-88.80169,42.57668],[-88.80476,42.56511],[-88.80731,42.55494],[-88.80934,42.54616],[-88.81083,42.53879],[-88.8118,42.53281],[-88.81225,42.52823],[-88.81216,42.52504],[-88.81156,42.52326],[-88.81042,42.52287],[-88.80945,42.52111],[-88.80865,42.51796],[-88.80801,42.51344],[-88.80753,42.50754],[-88.80722,42.50026],[-88.80708,42.4916],[-88.8071,42.48157],[-88.80728,42.47015],[-88.80707,42.45994],[-88.80645,42.45094],[-88.80544,42.44313],[-88.80403,42.43654],[-88.80222,42.43115],[-88.80001,42.42696],[-88.7974,42.42397],[-88.79439,42.4222],[-88.79169,42.41996],[-88.7893,42.41726],[-88.78722,42.4141],[-88.78544,42.41049],[-88.78397,42.40641],[-88.78281,42.40187],[-88.78195,42.39688],[-88.78141,42.39142],[-88.78115,42.3852],[-88.78117,42.37823],[-88.78148,42.37049],[-88.78208,42.362],[-88.78296,42.35274],[-88.78413,42.34272],[-88.78559,42.33194],[-88.78733,42.32041],[-88.78885,42.30583],[-88.79014,42.28822],[-88.7912,42.26757],[-88.79204,42.24389],[-88.79265,42.21717],[-88.79303,42.18741],[-88.79319,42.15462],[-88.79312,42.11879],[-88.79344,42.08705],[-88.79414,42.05938],[-88.79524,42.03581],[-88.79673,42.01631],[-88.7986,42.00091],[-88.80086,41.98958],[-88.80351,41.98234],[-88.80655,41.97919],[-88.80921,41.97603],[-88.81148,41.97288],[-88.81338,41.96973],[-88.81489,41.96658],[-88.81602,41.96344],[-88.81677,41.96029],[-88.81713,41.95715],[-88.81711,41.95401],[-88.81654,41.9475],[-88.81541,41.93762],[-88.81372,41.92438],[-88.81147,41.90776],[-88.80866,41.88777],[-88.80529,41.86442],[-88.80137,41.83769],[-88.79688,41.8076],[-88.7925,41.78051],[-88.78821,41.75642],[-88.78402,41.73533],[-88.77992,41.71725],[-88.77593,41.70217],[-88.77203,41.6901],[-88.76823,41.68102],[-88.76452,41.67495],[-88.76093,41.66755],[-88.75744,41.65882],[-88.75406,41.64875],[-88.7508,41.63736],[-88.74764,41.62463],[-88.74459,41.61057],[-88.74165,41.59517],[-88.73882,41.57845],[-88.73603,41.56348],[-88.73329,41.55026],[-88.7306,41.53879],[-88.72795,41.52907],[-88.72535,41.5211],[-88.7228,41.51488],[-88.72029,41.51042],[-88.71783,41.5077],[-88.71566,41.50474],[-88.71379,41.50153],[-88.71221,41.49808],[-88.71093,41.49437],[-88.70994,41.49042],[-88.70924,41.48621],[-88.70884,41.48176],[-88.70874,41.47706],[-88.70902,41.47273],[-88.7097,41.46876],[-88.71076,41.46514],[-88.71221,41.4619],[-88.71406,41.45901],[-88.71629,41.45649],[-88.71891,41.45433],[-88.72192,41.45253],[-88.72466,41.44962],[-88.72715,41.44559],[-88.72937,41.44044],[-88.73133,41.43418],[-88.73303,41.4268],[-88.73446,41.4183],[-88.73564,41.40869],[-88.73655,41.39796],[-88.7377,41.38834],[-88.73911,41.37983],[-88.74076,41.37244],[-88.74265,41.36615],[-88.74479,41.36098],[-88.74718,41.35692],[-88.74981,41.35397],[-88.75269,41.35213],[-88.7553,41.35011],[-88.75764,41.34792],[-88.75971,41.34555],[-88.76151,41.343],[-88.76304,41.34028],[-88.7643,41.33738],[-88.7653,41.3343],[-88.76602,41.33105],[-88.76641,41.32807],[-88.76647,41.32538],[-88.76619,41.32297],[-88.76557,41.32085],[-88.76463,41.31901],[-88.76334,41.31745],[-88.76173,41.31617],[-88.75978,41.31517],[-88.75782,41.31324],[-88.75587,41.31038],[-88.75392,41.30658],[-88.75196,41.30185],[-88.75,41.29618],[-88.74804,41.28957],[-88.74608,41.28204],[-88.74412,41.27356],[-88.74188,41.26599],[-88.73936,41.25931],[-88.73656,41.25353],[-88.73348,41.24866],[-88.73013,41.24467],[-88.7265,41.24159],[-88.72259,41.23941],[-88.7184,41.23812],[-88.71424,41.23392],[-88.71011,41.22679],[-88.70601,41.21674],[-88.70194,41.20377],[-88.6979,41.18787],[-88.69389,41.16906],[-88.68991,41.14733],[-88.68597,41.12267],[-88.68222,41.10085],[-88.67867,41.08187],[-88.67532,41.06572],[-88.67218,41.0524],[-88.66923,41.04193],[-88.66648,41.03428],[-88.66394,41.02948],[-88.66159,41.0275],[-88.65954,41.02499],[-88.65777,41.02193],[-88.6563,41.01833],[-88.65511,41.01418],[-88.65422,41.00949],[-88.65361,41.00426],[-88.6533,40.99849],[-88.65328,40.99217],[-88.65303,40.98658],[-88.65258,40.98173],[-88.65191,40.97761],[-88.65102,40.97421],[-88.64991,40.97156],[-88.64859,40.96963],[-88.64706,40.96843],[-88.64531,40.96797],[-88.64377,40.96719],[-88.64244,40.9661],[-88.64132,40.9647],[-88.64042,40.96298],[-88.63973,40.96095],[-88.63925,40.9586],[-88.63898,40.95594],[-88.63892,40.95297],[-88.63904,40.95036],[-88.63935,40.94813],[-88.63983,40.94626],[-88.64049,40.94476],[-88.64132,40.94363],[-88.64234,40.94286],[-88.64354,40.94247],[-88.64491,40.94244],[-88.64612,40.94242],[-88.64715,40.9424],[-88.64801,40.94238],[-88.6487,40.94236],[-88.64921,40.94235],[-88.64955,40.94235],[-88.64973,40.94234]],[[-88.88191,42.92783],[-88.87594,42.9113]]]}}]}