{"type":"FeatureCollection","features":[{"type":"Feature","properties":{"Name":"Line 62"},"geometry":{"type":"MultiLineString","coordinates":[[[-88.64921,40.94237],[-88.64624,40.94345],[-88.6403,40.9456],[-88.63139,40.94884],[-88.6195,40.95316],[-88.60465,40.95855],[-88.58682,40.96502],[-88.56603,40.97257],[-88.54226,40.9812],[-88.51162,40.99378],[-88.47411,41.0103],[-88.42973,41.03077],[-88.37848,41.05519],[-88.32036,41.08355],[-88.25537,41.11586],[-88.18351,41.15211],[-88.10477,41.19231],[-88.03285,41.22884],[-87.96773,41.26168],[-87.90943,41.29085],[-87.85794,41.31633],[-87.81326,41.33814],[-87.77539,41.35627],[-87.74433,41.37072],[-87.72008,41.38149],[-87.69625,41.39174],[-87.67282,41.40148],[-87.64981,41.4107],[-87.62721,41.41941],[-87.60501,41.42759],[-87.58324,41.43527],[-87.56187,41.44242],[-87.54091,41.44906],[-87.52255,41.45542],[-87.50678,41.4615],[-87.49361,41.46731],[-87.48304,41.47283],[-87.47506,41.47808],[-87.46967,41.48304],[-87.46688,41.48773],[-87.46668,41.49214],[-87.46626,41.49602],[-87.46561,41.49938],[-87.46474,41.50222],[-87.46365,41.50453],[-87.46233,41.50632],[-87.46079,41.50759],[-87.45902,41.50833],[-87.45703,41.50854],[-87.45528,41.50873],[-87.45379,41.50889],[-87.45254,41.50903],[-87.45155,41.50914],[-87.4508,41.50922],[-87.4503,41.50927],[-87.45005,41.5093]]]}}]}