{"type":"FeatureCollection","features":[{"type":"Feature","properties":{"Name":"Line 65"},"geometry":{"type":"MultiLineString","coordinates":[[[-101.24017,49.75348],[-101.23515,49.75318],[-101.2251,49.75257],[-101.21002,49.75165],[-101.18992,49.75043],[-101.1648,49.74891],[-101.13465,49.74707],[-101.09948,49.74494],[-101.05928,49.74249],[-101.02375,49.7402],[-100.99288,49.73806],[-100.96667,49.73607],[-100.94514,49.73423],[-100.92826,49.73254],[-100.91605,49.73101],[-100.90851,49.72962],[-100.90563,49.72838],[-100.8995,49.7272],[-100.89013,49.72606],[-100.8775,49.72497],[-100.86163,49.72394],[-100.84251,49.72295],[-100.82014,49.72202],[-100.79452,49.72114],[-100.76565,49.7203],[-100.73931,49.71929],[-100.71549,49.7181],[-100.69419,49.71673],[-100.67541,49.71518],[-100.65916,49.71346],[-100.64543,49.71155],[-100.63422,49.70947],[-100.62554,49.70721],[-100.6047,49.70355],[-100.57173,49.69848],[-100.5266,49.69202],[-100.46934,49.68416],[-100.39992,49.67489],[-100.31836,49.66423],[-100.22465,49.65217],[-100.1188,49.63871],[-100.02518,49.62664],[-99.94379,49.61598],[-99.87462,49.60672],[-99.81769,49.59885],[-99.77299,49.59239],[-99.74052,49.58732],[-99.72027,49.58366],[-99.71226,49.5814],[-99.70364,49.57939],[-99.6944,49.57763],[-99.68455,49.57614],[-99.6741,49.5749],[-99.66302,49.57391],[-99.65134,49.57318],[-99.63905,49.5727],[-99.62614,49.57248],[-99.61484,49.57229],[-99.60516,49.57212],[-99.5971,49.57199],[-99.59064,49.57188],[-99.5858,49.57179],[-99.58258,49.57174],[-99.58096,49.57171]],[[-99.70266,49.5844],[-99.69519,49.58351],[-99.68025,49.58173],[-99.65784,49.57907],[-99.62796,49.57551],[-99.59062,49.57107],[-99.5458,49.56574],[-99.49352,49.55952],[-99.43376,49.55241],[-99.37826,49.5453],[-99.32701,49.53818],[-99.28002,49.53105],[-99.23728,49.52392],[-99.19879,49.51678],[-99.16455,49.50963],[-99.13457,49.50248],[-99.10884,49.49533],[-99.07338,49.48484],[-99.02819,49.47103],[-98.97327,49.45389],[-98.90861,49.43342],[-98.83423,49.40962],[-98.75011,49.38249],[-98.65625,49.35203],[-98.55267,49.31824],[-98.4556,49.28683],[-98.36504,49.25779],[-98.28098,49.23113],[-98.20344,49.20684],[-98.13241,49.18493],[-98.06789,49.16539],[-98.00988,49.14822],[-97.95838,49.13343],[-97.91307,49.12014],[-97.87395,49.10835],[-97.84101,49.09805],[-97.81427,49.08926],[-97.79372,49.08196],[-97.77936,49.07616],[-97.77119,49.07185],[-97.76921,49.06905],[-97.76635,49.06649],[-97.76262,49.06419],[-97.75802,49.06214],[-97.75253,49.06034],[-97.74618,49.05879],[-97.73894,49.05749],[-97.73084,49.05645],[-97.72185,49.05565],[-97.71193,49.05447],[-97.70106,49.05289],[-97.68924,49.05092],[-97.67649,49.04855],[-97.66279,49.0458],[-97.64815,49.04265],[-97.63257,49.03911],[-97.61604,49.03518],[-97.59182,49.02476],[-97.55991,49.00783],[-97.52029,48.98442],[-97.47299,48.9545],[-97.41799,48.9181],[-97.35529,48.87519],[-97.2849,48.82579],[-97.20681,48.7699],[-97.1361,48.71904],[-97.07275,48.67322],[-97.01678,48.63243],[-96.96819,48.59668],[-96.92696,48.56597],[-96.89311,48.54029],[-96.86663,48.51965],[-96.84752,48.50404],[-96.82579,48.48699],[-96.80144,48.46848],[-96.77447,48.44853],[-96.74489,48.42713],[-96.71268,48.40429],[-96.67785,48.37999],[-96.64041,48.35425],[-96.60034,48.32706],[-96.55887,48.2984],[-96.516,48.26826],[-96.47172,48.23664],[-96.42604,48.20355],[-96.37895,48.16899],[-96.33046,48.13295],[-96.28056,48.09543],[-96.22927,48.05644],[-96.18344,48.02179],[-96.14308,47.99149],[-96.1082,47.96552],[-96.07879,47.9439],[-96.05485,47.92662],[-96.03639,47.91368],[-96.02339,47.90508],[-96.01587,47.90083],[-96.00031,47.89404],[-95.97672,47.88471],[-95.94509,47.87285],[-95.90543,47.85846],[-95.85774,47.84153],[-95.80201,47.82206],[-95.73825,47.80006],[-95.66645,47.77553],[-95.60362,47.75406],[-95.54977,47.73566],[-95.5049,47.72033],[-95.469,47.70806],[-95.44208,47.69886],[-95.42413,47.69272],[-95.41515,47.68966]]]}}]}