{"type":"FeatureCollection","features":[{"type":"Feature","properties":{"Name":"Line 67/Alberta Clipper"},"geometry":{"type":"MultiLineString","coordinates":[[[-113.3562,53.54164],[-113.35265,53.53828],[-113.34555,53.53158],[-113.33489,53.52151],[-113.32068,53.50809],[-113.30292,53.49132],[-113.28161,53.47119],[-113.25674,53.44771],[-113.22832,53.42087],[-113.20303,53.39676],[-113.18086,53.37538],[-113.16181,53.35672],[-113.14589,53.34079],[-113.13309,53.32759],[-113.12341,53.31711],[-113.11686,53.30936],[-113.11343,53.30433],[-113.10787,53.29879],[-113.10016,53.29272],[-113.09031,53.28613],[-113.07831,53.27902],[-113.06418,53.27138],[-113.04791,53.26322],[-113.02949,53.25454],[-113.00894,53.24534],[-112.98586,53.23583],[-112.96025,53.226],[-112.93212,53.21586],[-112.90146,53.2054],[-112.86828,53.19464],[-112.83257,53.18356],[-112.79434,53.17217],[-112.75358,53.16046],[-112.71348,53.1487],[-112.67404,53.13687],[-112.63525,53.12499],[-112.59713,53.11304],[-112.55966,53.10104],[-112.52286,53.08897],[-112.48671,53.07685],[-112.45122,53.06466],[-112.40074,53.04688],[-112.33527,53.02348],[-112.25482,52.99449],[-112.15938,52.95989],[-112.04895,52.91969],[-111.92353,52.87388],[-111.78313,52.82247],[-111.62774,52.76546],[-111.48584,52.71375],[-111.35743,52.66733],[-111.24251,52.62621],[-111.14108,52.59039],[-111.05314,52.55987],[-110.9787,52.53464],[-110.91774,52.51471],[-110.87028,52.50008],[-110.82683,52.48652],[-110.78741,52.47401],[-110.752,52.46257],[-110.72061,52.45219],[-110.69324,52.44288],[-110.66989,52.43463],[-110.65055,52.42744],[-110.63524,52.42131],[-110.60413,52.41008],[-110.55724,52.39374],[-110.49455,52.37229],[-110.41608,52.34573],[-110.32181,52.31407],[-110.21176,52.2773],[-110.08591,52.23542],[-109.94428,52.18843],[-109.81083,52.14376],[-109.68558,52.10141],[-109.56851,52.06138],[-109.45962,52.02367],[-109.35893,51.98828],[-109.26643,51.9552],[-109.18211,51.92445],[-109.10598,51.89601],[-109.02299,51.86726],[-108.93314,51.8382],[-108.83644,51.80882],[-108.73287,51.77912],[-108.62245,51.7491],[-108.50517,51.71878],[-108.38103,51.68813],[-108.25003,51.65717],[-108.12721,51.62797],[-108.01257,51.60052],[-107.90611,51.57484],[-107.80784,51.55092],[-107.71774,51.52875],[-107.63583,51.50835],[-107.5621,51.4897],[-107.49655,51.47282],[-107.43448,51.45704],[-107.37589,51.44238],[-107.32078,51.42884],[-107.26916,51.41641],[-107.22102,51.4051],[-107.17635,51.39489],[-107.13517,51.38581],[-107.09748,51.37784],[-107.06096,51.36955],[-107.02562,51.36094],[-106.99145,51.35202],[-106.95847,51.34278],[-106.92667,51.33323],[-106.89605,51.32336],[-106.8666,51.31318],[-106.83834,51.30268],[-106.79893,51.28732],[-106.74837,51.26711],[-106.68666,51.24205],[-106.61381,51.21213],[-106.52981,51.17736],[-106.43466,51.13774],[-106.32837,51.09327],[-106.21093,51.04394],[-106.10304,50.99816],[-106.00471,50.95595],[-105.91593,50.9173],[-105.83671,50.8822],[-105.76703,50.85066],[-105.70692,50.82268],[-105.65635,50.79826],[-105.61534,50.7774],[-105.57497,50.75749],[-105.53523,50.73854],[-105.49613,50.72055],[-105.45766,50.70351],[-105.41983,50.68743],[-105.38263,50.67231],[-105.34607,50.65815],[-105.31015,50.64494],[-105.27459,50.63125],[-105.23941,50.61709],[-105.20459,50.60245],[-105.17014,50.58734],[-105.13605,50.57175],[-105.10234,50.55568],[-105.069,50.53914],[-105.03602,50.52212],[-105.00629,50.50698],[-104.97981,50.49372],[-104.95657,50.48234],[-104.93659,50.47283],[-104.91985,50.4652],[-104.90636,50.45945],[-104.89611,50.45558],[-104.88912,50.45359],[-104.88093,50.45085],[-104.87155,50.44737],[-104.86098,50.44314],[-104.84922,50.43817],[-104.83627,50.43246],[-104.82212,50.426],[-104.80679,50.41879],[-104.79026,50.41084],[-104.77102,50.40407],[-104.74906,50.39846],[-104.72438,50.39403],[-104.69699,50.39078],[-104.66687,50.38869],[-104.63405,50.38778],[-104.5985,50.38804],[-104.56023,50.38948],[-104.52143,50.39029],[-104.48208,50.39047],[-104.44218,50.39003],[-104.40174,50.38896],[-104.36076,50.38726],[-104.31924,50.38493],[-104.27717,50.38198],[-104.23455,50.3784],[-104.19608,50.37503],[-104.16174,50.37188],[-104.13154,50.36894],[-104.10547,50.36621],[-104.08354,50.36369],[-104.06575,50.36138],[-104.05209,50.35929],[-104.04257,50.35741],[-104.02954,50.35421],[-104.01299,50.3497],[-103.99294,50.34387],[-103.96937,50.33673],[-103.94229,50.32827],[-103.9117,50.3185],[-103.87759,50.30741],[-103.83998,50.29501],[-103.80492,50.28402],[-103.77242,50.27445],[-103.74248,50.26631],[-103.7151,50.25958],[-103.69028,50.25427],[-103.66801,50.25038],[-103.64831,50.2479],[-103.63116,50.24685],[-103.61392,50.2454],[-103.59659,50.24357],[-103.57916,50.24134],[-103.56165,50.23872],[-103.54404,50.23571],[-103.52633,50.23231],[-103.50854,50.22852],[-103.49065,50.22434],[-103.47095,50.22032],[-103.44942,50.21646],[-103.42608,50.21275],[-103.40092,50.20921],[-103.37394,50.20583],[-103.34515,50.2026],[-103.31453,50.19954],[-103.2821,50.19664],[-103.25229,50.19379],[-103.2251,50.19099],[-103.20054,50.18824],[-103.1786,50.18555],[-103.15928,50.1829],[-103.14259,50.18032],[-103.12852,50.17778],[-103.11707,50.17529],[-103.10409,50.17281],[-103.08957,50.17034],[-103.07352,50.16786],[-103.05593,50.16539],[-103.0368,50.16292],[-103.01614,50.16045],[-102.99394,50.15799],[-102.9702,50.15553],[-102.94598,50.15275],[-102.92127,50.14967],[-102.89606,50.14628],[-102.87037,50.14257],[-102.84418,50.13856],[-102.81751,50.13423],[-102.79035,50.12959],[-102.76269,50.12464],[-102.73817,50.12004],[-102.71676,50.11579],[-102.69849,50.11188],[-102.68334,50.10833],[-102.67131,50.10512],[-102.66241,50.10226],[-102.65663,50.09975],[-102.65398,50.09758],[-102.6501,50.09568],[-102.64501,50.09405],[-102.63869,50.09268],[-102.63114,50.09158],[-102.62238,50.09075],[-102.61239,50.09018],[-102.60118,50.08987],[-102.58875,50.08983],[-102.57521,50.08936],[-102.56056,50.08846],[-102.54479,50.08714],[-102.52792,50.08538],[-102.50994,50.08319],[-102.49085,50.08058],[-102.47065,50.07753],[-102.44934,50.07406],[-102.42607,50.07002],[-102.40084,50.06541],[-102.37365,50.06024],[-102.34451,50.05449],[-102.3134,50.04819],[-102.28034,50.04131],[-102.24532,50.03387],[-102.20835,50.02586],[-102.17148,50.01754],[-102.13472,50.00892],[-102.09807,49.99998],[-102.06153,49.99074],[-102.0251,49.98118],[-101.98878,49.97132],[-101.95257,49.96115],[-101.91647,49.95067],[-101.88385,49.94106],[-101.8547,49.93233],[-101.82904,49.92447],[-101.80686,49.91748],[-101.78815,49.91137],[-101.77292,49.90613],[-101.76117,49.90176],[-101.75291,49.89826],[-101.73936,49.89372],[-101.72055,49.88813],[-101.69646,49.88149],[-101.6671,49.8738],[-101.63246,49.86506],[-101.59255,49.85527],[-101.54737,49.84443],[-101.49692,49.83255],[-101.45152,49.82156],[-101.41118,49.81149],[-101.3759,49.80232],[-101.34568,49.79405],[-101.32051,49.78669],[-101.3004,49.78023],[-101.28535,49.77468],[-101.27536,49.77003],[-101.26159,49.76565],[-101.24404,49.76155],[-101.22271,49.75771],[-101.1976,49.75415],[-101.16871,49.75086],[-101.13604,49.74784],[-101.0996,49.74509],[-101.05937,49.74262],[-101.02382,49.74029],[-100.99293,49.73813],[-100.96671,49.73612],[-100.94516,49.73426],[-100.92827,49.73256],[-100.91606,49.73101],[-100.90851,49.72962],[-100.90563,49.72838],[-100.8995,49.7272],[-100.89013,49.72606],[-100.8775,49.72497],[-100.86163,49.72394],[-100.84251,49.72295],[-100.82014,49.72202],[-100.79452,49.72114],[-100.76565,49.7203],[-100.73931,49.71929],[-100.71549,49.7181],[-100.69419,49.71673],[-100.67541,49.71518],[-100.65916,49.71346],[-100.64543,49.71155],[-100.63422,49.70947],[-100.62554,49.70721],[-100.6047,49.70355],[-100.57173,49.69848],[-100.5266,49.69202],[-100.46934,49.68416],[-100.39992,49.67489],[-100.31836,49.66423],[-100.22465,49.65217],[-100.1188,49.63871],[-100.02517,49.62664],[-99.94376,49.61598],[-99.87457,49.60672],[-99.8176,49.59886],[-99.77286,49.5924],[-99.74033,49.58735],[-99.72003,49.58369],[-99.71195,49.58143],[-99.70323,49.57942],[-99.69388,49.57767],[-99.68388,49.57615],[-99.67325,49.57489],[-99.66198,49.57388],[-99.65008,49.57311],[-99.63754,49.57259],[-99.62436,49.57232],[-99.60797,49.57156],[-99.58838,49.5703],[-99.56558,49.56855],[-99.53958,49.56631],[-99.51037,49.56358],[-99.47795,49.56035],[-99.44233,49.55663],[-99.4035,49.55242],[-99.36563,49.54768],[-99.32873,49.54242],[-99.2928,49.53663],[-99.25784,49.53031],[-99.22384,49.52347],[-99.19081,49.51609],[-99.15874,49.5082],[-99.12764,49.49977],[-99.09054,49.48912],[-99.04744,49.47625],[-98.99833,49.46115],[-98.94323,49.44382],[-98.88212,49.42427],[-98.81501,49.40249],[-98.74189,49.37849],[-98.66278,49.35227],[-98.58406,49.32653],[-98.50573,49.30127],[-98.42779,49.2765],[-98.35025,49.25221],[-98.2731,49.22841],[-98.19635,49.20509],[-98.11998,49.18225],[-98.04402,49.1599],[-97.97729,49.13999],[-97.91982,49.12253],[-97.8716,49.10751],[-97.83262,49.09493],[-97.8029,49.08479],[-97.78242,49.0771],[-97.77119,49.07185],[-97.76921,49.06905],[-97.76635,49.06649],[-97.76262,49.06419],[-97.75802,49.06214],[-97.75253,49.06034],[-97.74618,49.05879],[-97.73894,49.05749],[-97.73084,49.05645],[-97.72185,49.05565],[-97.71193,49.05447],[-97.70106,49.05289],[-97.68924,49.05092],[-97.67649,49.04855],[-97.66279,49.0458],[-97.64815,49.04265],[-97.63257,49.03911],[-97.61604,49.03518],[-97.59182,49.02476],[-97.55991,49.00783],[-97.52029,48.98442],[-97.47299,48.9545],[-97.41799,48.9181],[-97.35529,48.87519],[-97.2849,48.82579],[-97.20681,48.7699],[-97.1361,48.71904],[-97.07275,48.67322],[-97.01678,48.63243],[-96.96819,48.59668],[-96.92696,48.56597],[-96.89311,48.54029],[-96.86663,48.51965],[-96.84752,48.50404],[-96.82579,48.48699],[-96.80144,48.46848],[-96.77447,48.44853],[-96.74489,48.42713],[-96.71268,48.40429],[-96.67785,48.37999],[-96.64041,48.35425],[-96.60034,48.32706],[-96.55919,48.29862],[-96.51694,48.26893],[-96.47361,48.23799],[-96.42919,48.2058],[-96.38369,48.17236],[-96.33709,48.13767],[-96.28941,48.10173],[-96.24063,48.06454],[-96.1967,48.03124],[-96.15761,48.00184],[-96.12336,47.97632],[-96.09395,47.9547],[-96.06938,47.93697],[-96.04965,47.92313],[-96.03476,47.91318],[-96.02471,47.90713],[-96.01161,47.90042],[-95.99545,47.89306],[-95.97625,47.88505],[-95.95399,47.87639],[-95.92867,47.86708],[-95.90031,47.85712],[-95.86889,47.84651],[-95.83442,47.83524],[-95.79994,47.82374],[-95.76546,47.812],[-95.73098,47.80002],[-95.6965,47.78781],[-95.66201,47.77535],[-95.62752,47.76266],[-95.59303,47.74973],[-95.55853,47.73656],[-95.52778,47.72503],[-95.50076,47.71513],[-95.47748,47.70687],[-95.45795,47.70023],[-95.44215,47.69524],[-95.4301,47.69187],[-95.42178,47.69014],[-95.4172,47.69005],[-95.40921,47.68867],[-95.3978,47.686],[-95.38297,47.68204],[-95.36472,47.6768],[-95.34306,47.67028],[-95.31798,47.66246],[-95.28948,47.65336],[-95.25756,47.64298],[-95.2275,47.63259],[-95.19928,47.62219],[-95.17292,47.61178],[-95.14841,47.60137],[-95.12575,47.59095],[-95.10494,47.58053],[-95.08598,47.57009],[-95.06888,47.55966],[-95.05368,47.55023],[-95.0404,47.5418],[-95.02903,47.53439],[-95.01957,47.52799],[-95.01202,47.52259],[-95.00639,47.51821],[-95.00266,47.51483],[-95.00085,47.51246],[-94.99587,47.5086],[-94.98771,47.50324],[-94.97638,47.49638],[-94.96188,47.48803],[-94.9442,47.47819],[-94.92335,47.46685],[-94.89932,47.45402],[-94.87213,47.43969],[-94.84752,47.42696],[-94.8255,47.41583],[-94.80607,47.4063],[-94.78923,47.39836],[-94.77498,47.39202],[-94.76331,47.38728],[-94.75424,47.38414],[-94.74776,47.3826],[-94.73997,47.3813],[-94.73089,47.38023],[-94.72051,47.37941],[-94.70884,47.37884],[-94.69587,47.3785],[-94.68159,47.3784],[-94.66603,47.37855],[-94.64916,47.37893],[-94.62468,47.37838],[-94.59258,47.37688],[-94.55286,47.37445],[-94.50553,47.37107],[-94.45058,47.36675],[-94.38801,47.3615],[-94.31782,47.3553],[-94.24002,47.34816],[-94.17111,47.34187],[-94.1111,47.33643],[-94.05997,47.33184],[-94.01774,47.32811],[-93.98439,47.32522],[-93.95994,47.32319],[-93.94438,47.322],[-93.93772,47.32167],[-93.93113,47.32158],[-93.92462,47.32176],[-93.91819,47.32218],[-93.91185,47.32286],[-93.90558,47.32379],[-93.89939,47.32497],[-93.89328,47.32641],[-93.88725,47.3281],[-93.8806,47.32952],[-93.87332,47.33068],[-93.86541,47.33156],[-93.85688,47.33217],[-93.84772,47.33252],[-93.83794,47.33259],[-93.82752,47.3324],[-93.81649,47.33193],[-93.80694,47.33144],[-93.79887,47.33091],[-93.7923,47.33035],[-93.78721,47.32975],[-93.78361,47.32913],[-93.7815,47.32847],[-93.78088,47.32778],[-93.78174,47.32705],[-93.7825,47.32642],[-93.78315,47.32588],[-93.78369,47.32542],[-93.78412,47.32506],[-93.78444,47.32479],[-93.78466,47.32461],[-93.78477,47.32452]],[[-103.08516,50.17176],[-103.04031,50.166]],[[-94.85236,47.43073],[-94.85068,47.42971]],[[-94.80346,47.40028],[-94.80277,47.40006],[-94.80139,47.39962],[-94.79931,47.39897],[-94.79654,47.3981],[-94.79308,47.39701],[-94.78892,47.3957],[-94.78408,47.39417],[-94.77854,47.39243],[-94.77427,47.39104],[-94.77127,47.39001],[-94.76953,47.38935],[-94.76907,47.38904],[-94.76987,47.38909],[-94.77194,47.3895],[-94.77528,47.39027],[-94.77988,47.3914],[-94.78391,47.39239],[-94.78737,47.39324],[-94.79025,47.39395],[-94.79255,47.39451],[-94.79428,47.39494],[-94.79543,47.39522],[-94.79601,47.39536]],[[-94.67195,47.37671],[-94.67088,47.3769],[-94.66876,47.37728],[-94.66557,47.37784],[-94.66132,47.37859],[-94.65601,47.37953],[-94.64963,47.38065],[-94.64219,47.38196],[-94.63369,47.38346],[-94.62516,47.38448],[-94.61661,47.38502],[-94.60804,47.38508],[-94.59945,47.38466],[-94.59083,47.38377],[-94.58218,47.38239],[-94.57352,47.38053],[-94.56483,47.37819],[-94.55722,47.37614],[-94.55071,47.37439],[-94.54527,47.37293],[-94.54093,47.37176],[-94.53767,47.37088],[-94.5355,47.37029],[-94.53441,47.37]],[[-94.28368,47.35222],[-94.26699,47.35032]],[[-93.96769,47.32317],[-93.96712,47.32309],[-93.96599,47.32293],[-93.9643,47.32268],[-93.96203,47.32236],[-93.95921,47.32195],[-93.95582,47.32147],[-93.95186,47.3209],[-93.94734,47.32025],[-93.94284,47.31985],[-93.93838,47.31971],[-93.93395,47.31983],[-93.92956,47.3202],[-93.92519,47.32083],[-93.92085,47.32171],[-93.91655,47.32284],[-93.91227,47.32424],[-93.90854,47.32545],[-93.90533,47.3265],[-93.90266,47.32737],[-93.90052,47.32806],[-93.89892,47.32858],[-93.89785,47.32893],[-93.89732,47.32911]],[[-93.86609,47.33401],[-93.86481,47.33381],[-93.86224,47.33343],[-93.85838,47.33284],[-93.85324,47.33207],[-93.84682,47.3311],[-93.83911,47.32993],[-93.83012,47.32858],[-93.81984,47.32702],[-93.81037,47.32574],[-93.80169,47.32473],[-93.79382,47.32399],[-93.78675,47.32352],[-93.78049,47.32332],[-93.77502,47.32339],[-93.77036,47.32373],[-93.7665,47.32435],[-93.76168,47.3244],[-93.75589,47.32388],[-93.74913,47.32281],[-93.74141,47.32117],[-93.73273,47.31898],[-93.72307,47.31622],[-93.71246,47.3129],[-93.70087,47.30902],[-93.68992,47.30516],[-93.6796,47.30133],[-93.6699,47.29753],[-93.66083,47.29376],[-93.65239,47.29001],[-93.64459,47.28629],[-93.63741,47.28259],[-93.63085,47.27893],[-93.62366,47.27546],[-93.61582,47.27221],[-93.60734,47.26915],[-93.59822,47.26631],[-93.58846,47.26367],[-93.57805,47.26123],[-93.567,47.259],[-93.55531,47.25698],[-93.54465,47.25498],[-93.53503,47.253],[-93.52646,47.25105],[-93.51892,47.24913],[-93.51242,47.24722],[-93.50695,47.24535],[-93.50253,47.2435],[-93.49914,47.24167],[-93.49618,47.24007],[-93.49364,47.2387],[-93.49153,47.23755],[-93.48983,47.23664],[-93.48856,47.23596],[-93.48772,47.2355],[-93.48729,47.23527]],[[-93.76984,47.32349],[-93.76764,47.32264],[-93.76324,47.32096],[-93.75664,47.31843],[-93.74785,47.31506],[-93.73685,47.31085],[-93.72366,47.3058],[-93.70826,47.2999],[-93.69067,47.29316],[-93.6747,47.28714],[-93.66037,47.28183],[-93.64766,47.27723],[-93.63658,47.27335],[-93.62713,47.27018],[-93.6193,47.26772],[-93.6131,47.26598],[-93.60854,47.26495],[-93.6036,47.26411],[-93.59831,47.26347],[-93.59265,47.26302],[-93.58662,47.26276],[-93.58024,47.26269],[-93.57349,47.26282],[-93.56637,47.26314],[-93.55889,47.26365],[-93.55149,47.26382],[-93.54417,47.26363],[-93.53692,47.2631],[-93.52974,47.26223],[-93.52265,47.261],[-93.51563,47.25943],[-93.50869,47.25751],[-93.50182,47.25524],[-93.49577,47.25301],[-93.49053,47.25081],[-93.4861,47.24866],[-93.48249,47.24654],[-93.47969,47.24446],[-93.4777,47.24242],[-93.47653,47.24041],[-93.47617,47.23845],[-93.47455,47.23591],[-93.47167,47.23279],[-93.46752,47.2291],[-93.46211,47.22484],[-93.45544,47.22],[-93.44751,47.21459],[-93.43832,47.2086],[-93.42786,47.20204],[-93.41435,47.19428],[-93.39779,47.18531],[-93.37817,47.17514],[-93.3555,47.16376],[-93.32977,47.15119],[-93.30099,47.1374],[-93.26916,47.12242],[-93.23427,47.10623],[-93.20112,47.09051],[-93.16972,47.07527],[-93.14006,47.06049],[-93.11215,47.04619],[-93.08597,47.03236],[-93.06154,47.01901],[-93.03885,47.00613],[-93.01791,46.99371],[-92.99933,46.98233],[-92.98312,46.97198],[-92.96926,46.96267],[-92.95778,46.95438],[-92.94865,46.94712],[-92.94189,46.94089],[-92.9375,46.9357],[-92.93547,46.93153],[-92.92714,46.92365],[-92.91251,46.91205],[-92.89159,46.89674],[-92.86437,46.87771],[-92.83085,46.85496],[-92.79103,46.82849],[-92.74491,46.79831],[-92.6925,46.76441],[-92.64605,46.73456],[-92.60557,46.70877],[-92.57106,46.68704],[-92.54251,46.66937],[-92.51993,46.65574],[-92.50332,46.64618],[-92.49268,46.64067],[-92.488,46.63922],[-92.48352,46.638],[-92.47925,46.63703],[-92.47518,46.63629],[-92.47131,46.63579],[-92.46764,46.63554],[-92.46417,46.63552],[-92.46091,46.63574],[-92.45785,46.6362],[-92.45452,46.63622],[-92.45092,46.6358],[-92.44707,46.63494],[-92.44294,46.63364],[-92.43855,46.6319],[-92.4339,46.62973],[-92.42898,46.62711],[-92.4238,46.62405],[-92.41835,46.62114],[-92.41263,46.61838],[-92.40664,46.61576],[-92.40038,46.61329],[-92.39386,46.61096],[-92.38707,46.60878],[-92.38002,46.60674],[-92.37269,46.60485],[-92.36518,46.60316],[-92.35748,46.60166],[-92.34959,46.60035],[-92.34151,46.59923],[-92.33324,46.59831],[-92.32479,46.59759],[-92.31614,46.59705],[-92.30731,46.59672],[-92.29684,46.59736],[-92.28472,46.59899],[-92.27097,46.60161],[-92.25557,46.60521],[-92.23853,46.6098],[-92.21985,46.61538],[-92.19953,46.62194],[-92.17757,46.62948],[-92.15774,46.63658],[-92.14003,46.64324],[-92.12446,46.64945],[-92.11103,46.65523],[-92.09972,46.66056],[-92.09054,46.66544],[-92.08349,46.66989],[-92.07858,46.67389],[-92.07428,46.67739],[-92.07059,46.68039],[-92.06752,46.68289],[-92.06506,46.68489],[-92.06322,46.68639],[-92.06199,46.68739],[-92.06137,46.68789]],[[-93.49202,47.25298],[-93.47757,47.24635]],[[-93.39124,47.17907],[-93.36867,47.16946]],[[-93.29461,47.13353],[-93.28219,47.12618]],[[-93.20088,47.08714],[-93.19959,47.08662],[-93.197,47.08557],[-93.19313,47.08401],[-93.18797,47.08192],[-93.18151,47.07931],[-93.17377,47.07618],[-93.16473,47.07253],[-93.15441,47.06836],[-93.14274,47.06311],[-93.12973,47.05678],[-93.11538,47.04937],[-93.09968,47.04089],[-93.08265,47.03132],[-93.06428,47.02068],[-93.04456,47.00897],[-93.0235,46.99617],[-93.00508,46.98497],[-92.98929,46.97538],[-92.97612,46.96738],[-92.9656,46.96098],[-92.9577,46.95618],[-92.95243,46.95299],[-92.9498,46.95139]],[[-92.51211,46.65051],[-92.49761,46.64436]],[[-92.43256,46.62602],[-92.41688,46.61965]],[[-92.40387,46.61293],[-92.3993,46.61145]],[[-92.30052,46.59672],[-92.16382,46.63197]]]}}]}