{"type":"FeatureCollection","features":[{"type":"Feature","properties":{"Name":"Line 7"},"geometry":{"type":"MultiLineString","coordinates":[[[-82.46122,42.91138],[-82.46086,42.9114],[-82.46016,42.91142],[-82.4591,42.91147],[-82.45769,42.91152],[-82.45593,42.91159],[-82.45382,42.91167],[-82.45136,42.91177],[-82.44854,42.91188],[-82.44591,42.91231],[-82.44346,42.91306],[-82.44119,42.91412],[-82.4391,42.9155],[-82.4372,42.91719],[-82.43548,42.9192],[-82.43395,42.92153],[-82.43259,42.92417],[-82.43022,42.92651],[-82.42683,42.92855],[-82.42242,42.93029],[-82.417,42.93173],[-82.41055,42.93286],[-82.40308,42.93369],[-82.3946,42.93423],[-82.3851,42.93445],[-82.37668,42.93484],[-82.36933,42.93538],[-82.36306,42.93608],[-82.35788,42.93694],[-82.35377,42.93795],[-82.35074,42.93913],[-82.34878,42.94045],[-82.34791,42.94194],[-82.34485,42.94353],[-82.3396,42.94523],[-82.33217,42.94704],[-82.32255,42.94896],[-82.31075,42.95098],[-82.29676,42.95311],[-82.28058,42.95535],[-82.26222,42.95769],[-82.24424,42.9602],[-82.22666,42.96285],[-82.20946,42.96566],[-82.19265,42.96863],[-82.17623,42.97175],[-82.1602,42.97503],[-82.14456,42.97846],[-82.12931,42.98205],[-82.1104,42.98593],[-82.08783,42.99011],[-82.0616,42.99459],[-82.03171,42.99936],[-81.99816,43.00443],[-81.96096,43.00979],[-81.92009,43.01546],[-81.87557,43.02141],[-81.83218,43.02742],[-81.78994,43.03347],[-81.74883,43.03957],[-81.70887,43.04572],[-81.67004,43.05192],[-81.63236,43.05817],[-81.59581,43.06446],[-81.5604,43.0708],[-81.52711,43.077],[-81.49593,43.08306],[-81.46687,43.08898],[-81.43992,43.09476],[-81.41509,43.1004],[-81.39237,43.1059],[-81.37177,43.11126],[-81.35329,43.11647],[-81.33334,43.12165],[-81.31193,43.12678],[-81.28906,43.13188],[-81.26473,43.13693],[-81.23894,43.14195],[-81.21168,43.14692],[-81.18296,43.15185],[-81.15278,43.15675],[-81.12441,43.16163],[-81.09785,43.16652],[-81.07309,43.1714],[-81.05015,43.17628],[-81.02901,43.18115],[-81.00968,43.18602],[-80.99216,43.19089],[-80.97645,43.19575],[-80.9622,43.19998],[-80.94942,43.20356],[-80.9381,43.2065],[-80.92825,43.20879],[-80.91986,43.21045],[-80.91294,43.21146],[-80.90749,43.21184],[-80.9035,43.21157],[-80.89761,43.212],[-80.88982,43.21314],[-80.88012,43.21497],[-80.86852,43.21751],[-80.85503,43.22075],[-80.83963,43.22469],[-80.82232,43.22934],[-80.80312,43.23468],[-80.78238,43.23996],[-80.76011,43.24516],[-80.7363,43.2503],[-80.71096,43.25536],[-80.68409,43.26035],[-80.65569,43.26528],[-80.62575,43.27013],[-80.59427,43.27491],[-80.5663,43.27885],[-80.54183,43.28194],[-80.52086,43.2842],[-80.50339,43.28561],[-80.48943,43.28617],[-80.47896,43.2859],[-80.47199,43.28478],[-80.46853,43.28282],[-80.45987,43.28205],[-80.446,43.28249],[-80.42694,43.28412],[-80.40267,43.28695],[-80.37321,43.29098],[-80.33855,43.2962],[-80.29868,43.30262],[-80.25362,43.31024],[-80.21411,43.31678],[-80.18017,43.32223],[-80.15178,43.3266],[-80.12894,43.32988],[-80.11167,43.33208],[-80.09995,43.33319],[-80.09379,43.33322],[-80.09319,43.33216],[-80.09267,43.33124],[-80.09221,43.33045],[-80.09184,43.32979],[-80.09154,43.32926],[-80.09131,43.32886],[-80.09116,43.3286],[-80.09109,43.32847]]]}}]}