{"type":"FeatureCollection","features":[{"type":"Feature","properties":{"Name":"Line 78"},"geometry":{"type":"MultiLineString","coordinates":[[[-88.64921,40.94237],[-88.64624,40.94345],[-88.6403,40.9456],[-88.63139,40.94884],[-88.6195,40.95316],[-88.60465,40.95855],[-88.58682,40.96502],[-88.56603,40.97257],[-88.54226,40.9812],[-88.51162,40.99378],[-88.47411,41.0103],[-88.42973,41.03077],[-88.37848,41.05519],[-88.32036,41.08355],[-88.25537,41.11586],[-88.18351,41.15211],[-88.10477,41.19231],[-88.03285,41.22884],[-87.96773,41.26168],[-87.90943,41.29085],[-87.85794,41.31633],[-87.81326,41.33814],[-87.77539,41.35627],[-87.74433,41.37072],[-87.72008,41.38149],[-87.69625,41.39174],[-87.67282,41.40148],[-87.64981,41.4107],[-87.62721,41.41941],[-87.60501,41.42759],[-87.58324,41.43527],[-87.56187,41.44242],[-87.54091,41.44906],[-87.52255,41.45542],[-87.50678,41.4615],[-87.49361,41.46731],[-87.48304,41.47283],[-87.47506,41.47808],[-87.46967,41.48304],[-87.46688,41.48773],[-87.46668,41.49214],[-87.46626,41.49614],[-87.46562,41.49975],[-87.46475,41.50294],[-87.46366,41.50574],[-87.46234,41.50813],[-87.4608,41.51012],[-87.45903,41.5117],[-87.45704,41.51288],[-87.45341,41.51364],[-87.44814,41.51398],[-87.44123,41.5139],[-87.43268,41.51339],[-87.42248,41.51247],[-87.41064,41.51113],[-87.39716,41.50936],[-87.38204,41.50718],[-87.36678,41.50546],[-87.35138,41.5042],[-87.33583,41.5034],[-87.32015,41.50306],[-87.30432,41.50319],[-87.28835,41.50378],[-87.27224,41.50483],[-87.25599,41.50634],[-87.23791,41.50891],[-87.218,41.51255],[-87.19626,41.51724],[-87.17269,41.523],[-87.14729,41.52982],[-87.12006,41.5377],[-87.091,41.54664],[-87.06011,41.55665],[-87.03278,41.56564],[-87.009,41.57362],[-86.98877,41.58059],[-86.97209,41.58654],[-86.95897,41.59149],[-86.94939,41.59542],[-86.94338,41.59834],[-86.94091,41.60025],[-86.93446,41.60304],[-86.92401,41.6067],[-86.90958,41.61124],[-86.89115,41.61665],[-86.86874,41.62294],[-86.84234,41.63011],[-86.81195,41.63815],[-86.77757,41.64707],[-86.74599,41.65567],[-86.7172,41.66395],[-86.6912,41.6719],[-86.668,41.67953],[-86.6476,41.68684],[-86.62999,41.69384],[-86.61517,41.7005],[-86.60315,41.70685],[-86.58658,41.71365],[-86.56545,41.72091],[-86.53976,41.72862],[-86.50952,41.73678],[-86.47472,41.7454],[-86.43537,41.75448],[-86.39146,41.764],[-86.343,41.77398],[-86.29953,41.78324],[-86.26105,41.79177],[-86.22757,41.79958],[-86.19908,41.80666],[-86.17558,41.81302],[-86.15707,41.81865],[-86.14355,41.82356],[-86.13503,41.82774],[-86.12518,41.83221],[-86.11401,41.83695],[-86.10153,41.84198],[-86.08772,41.84729],[-86.07258,41.85289],[-86.05613,41.85876],[-86.03836,41.86492],[-86.01926,41.87136],[-86.00129,41.87787],[-85.98443,41.88446],[-85.9687,41.89111],[-85.9541,41.89783],[-85.94061,41.90463],[-85.92825,41.9115],[-85.91701,41.91844],[-85.90689,41.92545],[-85.89241,41.9329],[-85.87358,41.9408],[-85.85039,41.94913],[-85.82285,41.95791],[-85.79095,41.96713],[-85.75469,41.9768],[-85.71408,41.9869],[-85.66911,41.99745],[-85.62663,42.00813],[-85.58664,42.01895],[-85.54915,42.02989],[-85.51414,42.04096],[-85.48162,42.05217],[-85.45159,42.06351],[-85.42406,42.07498],[-85.39901,42.08658],[-85.37299,42.09826],[-85.346,42.11003],[-85.31804,42.12187],[-85.28912,42.1338],[-85.25921,42.14581],[-85.22834,42.1579],[-85.1965,42.17007],[-85.16369,42.18233],[-85.1335,42.19334],[-85.10593,42.20312],[-85.08099,42.21167],[-85.05866,42.21898],[-85.03896,42.22505],[-85.02188,42.22988],[-85.00742,42.23348],[-84.99559,42.23585],[-84.98396,42.23853],[-84.97255,42.24153],[-84.96134,42.24485],[-84.95035,42.2485],[-84.93957,42.25246],[-84.92899,42.25674],[-84.91863,42.26134],[-84.90847,42.26627],[-84.89756,42.27101],[-84.88588,42.27559],[-84.87344,42.27998],[-84.86023,42.28421],[-84.84627,42.28826],[-84.83154,42.29213],[-84.81605,42.29583],[-84.79979,42.29935],[-84.78201,42.3038],[-84.76269,42.30919],[-84.74184,42.31551],[-84.71945,42.32276],[-84.69553,42.33094],[-84.67008,42.34005],[-84.6431,42.35009],[-84.61458,42.36106],[-84.58842,42.37098],[-84.56461,42.37983],[-84.54316,42.38761],[-84.52405,42.39434],[-84.5073,42.4],[-84.4929,42.40461],[-84.48086,42.40814],[-84.47117,42.41062],[-84.45884,42.41464],[-84.44386,42.42019],[-84.42624,42.42727],[-84.40597,42.4359],[-84.38306,42.44605],[-84.35751,42.45775],[-84.32932,42.47098],[-84.29848,42.48575],[-84.27027,42.49909],[-84.24469,42.51101],[-84.22174,42.52151],[-84.20141,42.53059],[-84.18372,42.53824],[-84.16866,42.54447],[-84.15623,42.54928],[-84.14643,42.55266],[-84.13596,42.55672],[-84.12483,42.56146],[-84.11304,42.56688],[-84.10058,42.57297],[-84.08747,42.57974],[-84.07369,42.58718],[-84.05924,42.5953],[-84.04413,42.6041],[-84.02965,42.61195],[-84.0158,42.61885],[-84.00258,42.62481],[-83.98998,42.62981],[-83.97801,42.63387],[-83.96666,42.63698],[-83.95595,42.63914],[-83.94586,42.64036],[-83.93609,42.64191],[-83.92664,42.64381],[-83.91751,42.64604],[-83.90869,42.64861],[-83.9002,42.65152],[-83.89203,42.65477],[-83.88418,42.65836],[-83.87664,42.66229],[-83.86823,42.66622],[-83.85892,42.67015],[-83.84873,42.6741],[-83.83766,42.67804],[-83.8257,42.682],[-83.81286,42.68595],[-83.79913,42.68991],[-83.78451,42.69388],[-83.7704,42.69812],[-83.75679,42.70263],[-83.74367,42.70741],[-83.73106,42.71247],[-83.71895,42.7178],[-83.70733,42.7234],[-83.69622,42.72927],[-83.68561,42.73542],[-83.67242,42.74158],[-83.65666,42.74776],[-83.63833,42.75396],[-83.61742,42.76017],[-83.59394,42.7664],[-83.56788,42.77265],[-83.53925,42.77891],[-83.50805,42.78519],[-83.48012,42.79106],[-83.45547,42.79652],[-83.43411,42.80157],[-83.41602,42.80621],[-83.40121,42.81044],[-83.38968,42.81426],[-83.38143,42.81767],[-83.37646,42.82067],[-83.37069,42.82373],[-83.36412,42.82687],[-83.35676,42.83008],[-83.3486,42.83335],[-83.33965,42.8367],[-83.32989,42.84011],[-83.31935,42.84359],[-83.308,42.84714],[-83.29714,42.85015],[-83.28677,42.85261],[-83.2769,42.85452],[-83.26751,42.85589],[-83.2586,42.85671],[-83.25019,42.85698],[-83.24227,42.85671],[-83.23484,42.8559],[-83.22509,42.85531],[-83.21304,42.85496],[-83.19868,42.85484],[-83.18201,42.85495],[-83.16303,42.85529],[-83.14174,42.85587],[-83.11814,42.85668],[-83.09223,42.85772],[-83.06876,42.85879],[-83.04772,42.85988],[-83.0291,42.86101],[-83.01292,42.86216],[-82.99918,42.86334],[-82.98786,42.86455],[-82.97898,42.86578],[-82.97253,42.86705],[-82.961,42.86822],[-82.94439,42.86931],[-82.9227,42.87032],[-82.89594,42.87123],[-82.86409,42.87206],[-82.82717,42.87281],[-82.78516,42.87346],[-82.73808,42.87403],[-82.69606,42.87488],[-82.6591,42.87601],[-82.62721,42.87742],[-82.60037,42.8791],[-82.5786,42.88107],[-82.56188,42.88331],[-82.55023,42.88584],[-82.54364,42.88864],[-82.53733,42.89099],[-82.5313,42.89288],[-82.52555,42.89432],[-82.52008,42.8953],[-82.51489,42.89583],[-82.50998,42.89591],[-82.50536,42.89553],[-82.50101,42.89469],[-82.49683,42.89427],[-82.4928,42.89426],[-82.48893,42.89466],[-82.48522,42.89547],[-82.48167,42.89669],[-82.47828,42.89832],[-82.47505,42.90036],[-82.47198,42.90281],[-82.46929,42.90496],[-82.46699,42.9068],[-82.46507,42.90833],[-82.46353,42.90955],[-82.46238,42.91047],[-82.46162,42.91109],[-82.46123,42.91139]]]}}]}